<?xml version='1.0' encoding='utf-8'?>
<q:quakeml xmlns="http://quakeml.org/xmlns/bed/1.2" xmlns:q="http://quakeml.org/xmlns/quakeml/1.2">
  <eventParameters publicID="smi:local/1dda3db1-5756-45fc-a26d-a08e09abde87">
    <event publicID="smi:local/515146_20170601T200224.565000">
      <comment id="smi:local/e7438cfe-2c59-4827-9356-c88ac4b230cb">
        <text>Template: 515146</text>
      </comment>
      <comment id="smi:local/3c055301-d8a7-449f-af36-cff6eba3df8e">
        <text>threshold=3.5999999046325684</text>
      </comment>
      <comment id="smi:local/1990cc75-6b13-48f6-90e7-161cee6ad005">
        <text>detect_val=4.058650016784668</text>
      </comment>
      <comment id="smi:local/e8b2a33e-316e-4f9d-90f9-75adfb69a8c3">
        <text>channels used: ('ENWF', 'HHE') ('ENWF', 'HHZ') ('KEMF', 'EHE') ('KEMF', 'EHZ') ('NCHR', 'EHE') ('NCHR', 'EHZ')</text>
      </comment>
      <creationInfo>
        <author>EQcorrscan</author>
        <creationTime>2022-10-05T23:42:19.139705Z</creationTime>
      </creationInfo>
      <pick publicID="smi:local/13408b5a-d11c-4031-9bff-7e71dccc7631">
        <time>
          <value>2017-06-01T20:02:26.470000Z</value>
        </time>
        <waveformID networkCode="NV" stationCode="ENWF" locationCode="" channelCode="HHE"></waveformID>
      </pick>
      <pick publicID="smi:local/7b7a9cca-7aed-4f2d-9629-4776d6324b76">
        <time>
          <value>2017-06-01T20:02:24.980000Z</value>
        </time>
        <waveformID networkCode="NV" stationCode="ENWF" locationCode="" channelCode="HHZ"></waveformID>
      </pick>
      <pick publicID="smi:local/5e674936-cf4f-40b8-87de-5f28fa228849">
        <time>
          <value>2017-06-01T20:02:26.500000Z</value>
        </time>
        <waveformID networkCode="NV" stationCode="KEMF" locationCode="" channelCode="EHE"></waveformID>
      </pick>
      <pick publicID="smi:local/a06cab98-5705-4a8b-8bec-84e523dc75e5">
        <time>
          <value>2017-06-01T20:02:25.075000Z</value>
        </time>
        <waveformID networkCode="NV" stationCode="KEMF" locationCode="" channelCode="EHZ"></waveformID>
      </pick>
      <pick publicID="smi:local/40dd2a78-9283-4e0a-8125-ef7553222d16">
        <time>
          <value>2017-06-01T20:02:25.845000Z</value>
        </time>
        <waveformID networkCode="NV" stationCode="NCHR" locationCode="" channelCode="EHE"></waveformID>
      </pick>
      <pick publicID="smi:local/3ea5790a-35ab-4d53-bc66-4e029182bb50">
        <time>
          <value>2017-06-01T20:02:24.615000Z</value>
        </time>
        <waveformID networkCode="NV" stationCode="NCHR" locationCode="" channelCode="EHZ"></waveformID>
      </pick>
    </event>
    <event publicID="smi:local/515146_20170601T200500.870000">
      <comment id="smi:local/6d512821-bf2f-420b-9b2c-04558a16af1c">
        <text>Template: 515146</text>
      </comment>
      <comment id="smi:local/6dd5a5c9-daeb-4e16-920b-d34aab3cbc06">
        <text>threshold=3.5999999046325684</text>
      </comment>
      <comment id="smi:local/58ce61a3-613c-4302-86de-ed2418767eee">
        <text>detect_val=4.867325782775879</text>
      </comment>
      <comment id="smi:local/67a8da42-c522-4a48-b5ab-c15b524d89ae">
        <text>channels used: ('ENWF', 'HHE') ('ENWF', 'HHZ') ('KEMF', 'EHE') ('KEMF', 'EHZ') ('NCHR', 'EHE') ('NCHR', 'EHZ')</text>
      </comment>
      <creationInfo>
        <author>EQcorrscan</author>
        <creationTime>2022-10-05T23:42:19.141435Z</creationTime>
      </creationInfo>
      <pick publicID="smi:local/f2b9f191-4b87-4977-a721-58df06197235">
        <time>
          <value>2017-06-01T20:05:02.775000Z</value>
        </time>
        <waveformID networkCode="NV" stationCode="ENWF" locationCode="" channelCode="HHE"></waveformID>
      </pick>
      <pick publicID="smi:local/a6fd97ec-fec6-4c29-8bcd-1743af001ad8">
        <time>
          <value>2017-06-01T20:05:01.285000Z</value>
        </time>
        <waveformID networkCode="NV" stationCode="ENWF" locationCode="" channelCode="HHZ"></waveformID>
      </pick>
      <pick publicID="smi:local/000e9531-6dea-451e-8783-eb55ab4583ca">
        <time>
          <value>2017-06-01T20:05:02.805000Z</value>
        </time>
        <waveformID networkCode="NV" stationCode="KEMF" locationCode="" channelCode="EHE"></waveformID>
      </pick>
      <pick publicID="smi:local/ad873c74-a732-4e45-9a95-7e408f0d9f0a">
        <time>
          <value>2017-06-01T20:05:01.380000Z</value>
        </time>
        <waveformID networkCode="NV" stationCode="KEMF" locationCode="" channelCode="EHZ"></waveformID>
      </pick>
      <pick publicID="smi:local/eaab2d08-ece0-4a6a-8e61-c0a9baf7450c">
        <time>
          <value>2017-06-01T20:05:02.150000Z</value>
        </time>
        <waveformID networkCode="NV" stationCode="NCHR" locationCode="" channelCode="EHE"></waveformID>
      </pick>
      <pick publicID="smi:local/93d371d4-72b1-4c09-bee6-90beade60969">
        <time>
          <value>2017-06-01T20:05:00.920000Z</value>
        </time>
        <waveformID networkCode="NV" stationCode="NCHR" locationCode="" channelCode="EHZ"></waveformID>
      </pick>
    </event>
    <event publicID="smi:local/515146_20170601T200539.935000">
      <comment id="smi:local/3bc9e0e8-343c-4de1-881d-e5d7d2a2e673">
        <text>Template: 515146</text>
      </comment>
      <comment id="smi:local/73f814eb-5a44-430f-ab4c-b65b9765c9b1">
        <text>threshold=3.5999999046325684</text>
      </comment>
      <comment id="smi:local/f4ac0ec3-8566-4ad1-b8ee-0bba560f0e34">
        <text>detect_val=5.999999523162842</text>
      </comment>
      <comment id="smi:local/05c44149-f5e8-462b-a36a-16c387063f8b">
        <text>channels used: ('ENWF', 'HHE') ('ENWF', 'HHZ') ('KEMF', 'EHE') ('KEMF', 'EHZ') ('NCHR', 'EHE') ('NCHR', 'EHZ')</text>
      </comment>
      <creationInfo>
        <author>EQcorrscan</author>
        <creationTime>2022-10-05T23:42:19.142550Z</creationTime>
      </creationInfo>
      <pick publicID="smi:local/7d56fb47-9a06-4892-8ff0-70efbd320d44">
        <time>
          <value>2017-06-01T20:05:41.840000Z</value>
        </time>
        <waveformID networkCode="NV" stationCode="ENWF" locationCode="" channelCode="HHE"></waveformID>
      </pick>
      <pick publicID="smi:local/ae932e3c-4296-438a-8ed3-76de1b2e2a3f">
        <time>
          <value>2017-06-01T20:05:40.350000Z</value>
        </time>
        <waveformID networkCode="NV" stationCode="ENWF" locationCode="" channelCode="HHZ"></waveformID>
      </pick>
      <pick publicID="smi:local/44e21806-e957-4a91-af42-c609b19fc1c0">
        <time>
          <value>2017-06-01T20:05:41.870000Z</value>
        </time>
        <waveformID networkCode="NV" stationCode="KEMF" locationCode="" channelCode="EHE"></waveformID>
      </pick>
      <pick publicID="smi:local/6b3b3df4-e2c3-4fe0-b3c4-264c64c8adcf">
        <time>
          <value>2017-06-01T20:05:40.445000Z</value>
        </time>
        <waveformID networkCode="NV" stationCode="KEMF" locationCode="" channelCode="EHZ"></waveformID>
      </pick>
      <pick publicID="smi:local/4f62f5a6-b213-44ea-b827-a9d19237079f">
        <time>
          <value>2017-06-01T20:05:41.215000Z</value>
        </time>
        <waveformID networkCode="NV" stationCode="NCHR" locationCode="" channelCode="EHE"></waveformID>
      </pick>
      <pick publicID="smi:local/22c5daf5-b862-4fb2-8b02-34d62ae6380d">
        <time>
          <value>2017-06-01T20:05:39.985000Z</value>
        </time>
        <waveformID networkCode="NV" stationCode="NCHR" locationCode="" channelCode="EHZ"></waveformID>
      </pick>
    </event>
    <event publicID="smi:local/515146_20170601T200649.895000">
      <comment id="smi:local/f29140e6-f903-46b4-b3b1-671ac0918ec3">
        <text>Template: 515146</text>
      </comment>
      <comment id="smi:local/3086d3f6-e375-4df9-adba-6389acc9c1c8">
        <text>threshold=3.5999999046325684</text>
      </comment>
      <comment id="smi:local/0dd411a2-94ac-446b-a6f1-ae46073aec83">
        <text>detect_val=3.9806458950042725</text>
      </comment>
      <comment id="smi:local/b0230107-bd1f-4657-a083-52108feb8ccf">
        <text>channels used: ('ENWF', 'HHE') ('ENWF', 'HHZ') ('KEMF', 'EHE') ('KEMF', 'EHZ') ('NCHR', 'EHE') ('NCHR', 'EHZ')</text>
      </comment>
      <creationInfo>
        <author>EQcorrscan</author>
        <creationTime>2022-10-05T23:42:19.143885Z</creationTime>
      </creationInfo>
      <pick publicID="smi:local/3be3283a-67e1-40fd-ae5d-7511ab4f5889">
        <time>
          <value>2017-06-01T20:06:51.800000Z</value>
        </time>
        <waveformID networkCode="NV" stationCode="ENWF" locationCode="" channelCode="HHE"></waveformID>
      </pick>
      <pick publicID="smi:local/d7a903d7-08e7-4b80-8fa5-a2da90dac326">
        <time>
          <value>2017-06-01T20:06:50.310000Z</value>
        </time>
        <waveformID networkCode="NV" stationCode="ENWF" locationCode="" channelCode="HHZ"></waveformID>
      </pick>
      <pick publicID="smi:local/94a63672-52f0-457f-9988-8c17c62402aa">
        <time>
          <value>2017-06-01T20:06:51.830000Z</value>
        </time>
        <waveformID networkCode="NV" stationCode="KEMF" locationCode="" channelCode="EHE"></waveformID>
      </pick>
      <pick publicID="smi:local/c547b76f-1361-4c2e-bc70-9c84c297638d">
        <time>
          <value>2017-06-01T20:06:50.405000Z</value>
        </time>
        <waveformID networkCode="NV" stationCode="KEMF" locationCode="" channelCode="EHZ"></waveformID>
      </pick>
      <pick publicID="smi:local/2fcabe68-f7a5-42e6-92ce-abfe2178d3bc">
        <time>
          <value>2017-06-01T20:06:51.175000Z</value>
        </time>
        <waveformID networkCode="NV" stationCode="NCHR" locationCode="" channelCode="EHE"></waveformID>
      </pick>
      <pick publicID="smi:local/752517c6-55a0-426a-ad0f-0023b1f2905d">
        <time>
          <value>2017-06-01T20:06:49.945000Z</value>
        </time>
        <waveformID networkCode="NV" stationCode="NCHR" locationCode="" channelCode="EHZ"></waveformID>
      </pick>
    </event>
    <event publicID="smi:local/515146_20170601T200736.410000">
      <comment id="smi:local/504b0b85-68ee-4a30-8c89-0e48234dd45a">
        <text>Template: 515146</text>
      </comment>
      <comment id="smi:local/5970783d-e2a3-4809-a4fa-5d6a0d63d7e8">
        <text>threshold=3.5999999046325684</text>
      </comment>
      <comment id="smi:local/f98e1b9e-0031-4ea5-ac86-13dcd7f5bab0">
        <text>detect_val=4.081221103668213</text>
      </comment>
      <comment id="smi:local/0f7f09ef-fdd4-4051-a012-11c33fc87678">
        <text>channels used: ('ENWF', 'HHE') ('ENWF', 'HHZ') ('KEMF', 'EHE') ('KEMF', 'EHZ') ('NCHR', 'EHE') ('NCHR', 'EHZ')</text>
      </comment>
      <creationInfo>
        <author>EQcorrscan</author>
        <creationTime>2022-10-05T23:42:19.144993Z</creationTime>
      </creationInfo>
      <pick publicID="smi:local/d46ff979-2826-4308-ad10-8e6427fcda5f">
        <time>
          <value>2017-06-01T20:07:38.315000Z</value>
        </time>
        <waveformID networkCode="NV" stationCode="ENWF" locationCode="" channelCode="HHE"></waveformID>
      </pick>
      <pick publicID="smi:local/5eb8c886-d046-4c7f-bf57-8a4254f4768f">
        <time>
          <value>2017-06-01T20:07:36.825000Z</value>
        </time>
        <waveformID networkCode="NV" stationCode="ENWF" locationCode="" channelCode="HHZ"></waveformID>
      </pick>
      <pick publicID="smi:local/1aa7eaea-53b7-45eb-b25f-7bc7d60e35b6">
        <time>
          <value>2017-06-01T20:07:38.345000Z</value>
        </time>
        <waveformID networkCode="NV" stationCode="KEMF" locationCode="" channelCode="EHE"></waveformID>
      </pick>
      <pick publicID="smi:local/23f3824e-2fe6-4457-9f11-1a13086a1a23">
        <time>
          <value>2017-06-01T20:07:36.920000Z</value>
        </time>
        <waveformID networkCode="NV" stationCode="KEMF" locationCode="" channelCode="EHZ"></waveformID>
      </pick>
      <pick publicID="smi:local/9773ebac-ed4c-4d3f-9aa9-07e9afb8ef25">
        <time>
          <value>2017-06-01T20:07:37.690000Z</value>
        </time>
        <waveformID networkCode="NV" stationCode="NCHR" locationCode="" channelCode="EHE"></waveformID>
      </pick>
      <pick publicID="smi:local/45abd637-f22c-4c8b-ac09-73ec07b0cf0e">
        <time>
          <value>2017-06-01T20:07:36.460000Z</value>
        </time>
        <waveformID networkCode="NV" stationCode="NCHR" locationCode="" channelCode="EHZ"></waveformID>
      </pick>
    </event>
    <event publicID="smi:local/515146_20170601T200743.070000">
      <comment id="smi:local/f447c7d8-a09c-49ba-86e1-ac36ecce1aef">
        <text>Template: 515146</text>
      </comment>
      <comment id="smi:local/8bed1a15-d262-4b17-9af1-295e30765325">
        <text>threshold=3.5999999046325684</text>
      </comment>
      <comment id="smi:local/9f3b6704-8c49-4474-8b67-09c4b24eb385">
        <text>detect_val=4.828950881958008</text>
      </comment>
      <comment id="smi:local/13978f11-2cc6-4eca-8acb-ad25b0b9e543">
        <text>channels used: ('ENWF', 'HHE') ('ENWF', 'HHZ') ('KEMF', 'EHE') ('KEMF', 'EHZ') ('NCHR', 'EHE') ('NCHR', 'EHZ')</text>
      </comment>
      <creationInfo>
        <author>EQcorrscan</author>
        <creationTime>2022-10-05T23:42:19.146084Z</creationTime>
      </creationInfo>
      <pick publicID="smi:local/d48409f4-9ad2-42a7-b28a-7eaf41d8d0db">
        <time>
          <value>2017-06-01T20:07:44.975000Z</value>
        </time>
        <waveformID networkCode="NV" stationCode="ENWF" locationCode="" channelCode="HHE"></waveformID>
      </pick>
      <pick publicID="smi:local/ac1b20a0-5955-473e-a2b4-cb4ff02a4d22">
        <time>
          <value>2017-06-01T20:07:43.485000Z</value>
        </time>
        <waveformID networkCode="NV" stationCode="ENWF" locationCode="" channelCode="HHZ"></waveformID>
      </pick>
      <pick publicID="smi:local/2cd7e469-dbbf-4f9b-b29d-93bf24250b73">
        <time>
          <value>2017-06-01T20:07:45.005000Z</value>
        </time>
        <waveformID networkCode="NV" stationCode="KEMF" locationCode="" channelCode="EHE"></waveformID>
      </pick>
      <pick publicID="smi:local/a6a26a61-acd7-4640-ab47-6a35954418f0">
        <time>
          <value>2017-06-01T20:07:43.580000Z</value>
        </time>
        <waveformID networkCode="NV" stationCode="KEMF" locationCode="" channelCode="EHZ"></waveformID>
      </pick>
      <pick publicID="smi:local/f3742203-59f5-4bc8-bedc-b6f81fb8af77">
        <time>
          <value>2017-06-01T20:07:44.350000Z</value>
        </time>
        <waveformID networkCode="NV" stationCode="NCHR" locationCode="" channelCode="EHE"></waveformID>
      </pick>
      <pick publicID="smi:local/7f639073-83be-49e0-b4b2-e6fe4b390e37">
        <time>
          <value>2017-06-01T20:07:43.120000Z</value>
        </time>
        <waveformID networkCode="NV" stationCode="NCHR" locationCode="" channelCode="EHZ"></waveformID>
      </pick>
    </event>
    <event publicID="smi:local/515146_20170601T200822.820000">
      <comment id="smi:local/de410f67-da19-4b6d-85b7-80b570e6126a">
        <text>Template: 515146</text>
      </comment>
      <comment id="smi:local/a9b7bb7e-ebc6-49f2-9e78-d8db7fcc8cdf">
        <text>threshold=3.5999999046325684</text>
      </comment>
      <comment id="smi:local/35a8653e-9ec7-4c25-bfa1-8dd1923c6b7c">
        <text>detect_val=4.124757766723633</text>
      </comment>
      <comment id="smi:local/565e3acc-f951-4345-8068-4f1fe4394680">
        <text>channels used: ('ENWF', 'HHE') ('ENWF', 'HHZ') ('KEMF', 'EHE') ('KEMF', 'EHZ') ('NCHR', 'EHE') ('NCHR', 'EHZ')</text>
      </comment>
      <creationInfo>
        <author>EQcorrscan</author>
        <creationTime>2022-10-05T23:42:19.147150Z</creationTime>
      </creationInfo>
      <pick publicID="smi:local/e9298f83-0c75-4630-bc4c-757d6e21d4ba">
        <time>
          <value>2017-06-01T20:08:24.725000Z</value>
        </time>
        <waveformID networkCode="NV" stationCode="ENWF" locationCode="" channelCode="HHE"></waveformID>
      </pick>
      <pick publicID="smi:local/34ceb1d6-88d7-4782-bc59-4e92e095e4a1">
        <time>
          <value>2017-06-01T20:08:23.235000Z</value>
        </time>
        <waveformID networkCode="NV" stationCode="ENWF" locationCode="" channelCode="HHZ"></waveformID>
      </pick>
      <pick publicID="smi:local/bf9393fd-77d7-4a5a-9727-b9658b8fe51e">
        <time>
          <value>2017-06-01T20:08:24.755000Z</value>
        </time>
        <waveformID networkCode="NV" stationCode="KEMF" locationCode="" channelCode="EHE"></waveformID>
      </pick>
      <pick publicID="smi:local/5e6cec4d-79a7-4629-a674-4583466ce4c6">
        <time>
          <value>2017-06-01T20:08:23.330000Z</value>
        </time>
        <waveformID networkCode="NV" stationCode="KEMF" locationCode="" channelCode="EHZ"></waveformID>
      </pick>
      <pick publicID="smi:local/5ff7a5c0-9728-4072-bcb7-74140f6cdf23">
        <time>
          <value>2017-06-01T20:08:24.100000Z</value>
        </time>
        <waveformID networkCode="NV" stationCode="NCHR" locationCode="" channelCode="EHE"></waveformID>
      </pick>
      <pick publicID="smi:local/66e052e8-d07d-4252-9102-cc043d52e79d">
        <time>
          <value>2017-06-01T20:08:22.870000Z</value>
        </time>
        <waveformID networkCode="NV" stationCode="NCHR" locationCode="" channelCode="EHZ"></waveformID>
      </pick>
    </event>
    <event publicID="smi:local/515146_20170601T200847.410000">
      <comment id="smi:local/2be1439b-3b90-44a6-b5f6-c770be76b114">
        <text>Template: 515146</text>
      </comment>
      <comment id="smi:local/fe5dd4db-652a-462f-9420-da6df5d9a3ff">
        <text>threshold=3.5999999046325684</text>
      </comment>
      <comment id="smi:local/27d0f581-19a1-4f9d-ab17-22856668250d">
        <text>detect_val=3.7187302112579346</text>
      </comment>
      <comment id="smi:local/6b02e4fc-0348-45bf-8df5-9c0bbe6077ae">
        <text>channels used: ('ENWF', 'HHE') ('ENWF', 'HHZ') ('KEMF', 'EHE') ('KEMF', 'EHZ') ('NCHR', 'EHE') ('NCHR', 'EHZ')</text>
      </comment>
      <creationInfo>
        <author>EQcorrscan</author>
        <creationTime>2022-10-05T23:42:19.148243Z</creationTime>
      </creationInfo>
      <pick publicID="smi:local/475b3ebb-6d72-44f5-a197-a9686f92290a">
        <time>
          <value>2017-06-01T20:08:49.315000Z</value>
        </time>
        <waveformID networkCode="NV" stationCode="ENWF" locationCode="" channelCode="HHE"></waveformID>
      </pick>
      <pick publicID="smi:local/aa2225b8-17e4-4caa-9789-5c8e20bb0db9">
        <time>
          <value>2017-06-01T20:08:47.825000Z</value>
        </time>
        <waveformID networkCode="NV" stationCode="ENWF" locationCode="" channelCode="HHZ"></waveformID>
      </pick>
      <pick publicID="smi:local/0c5d3d3d-c837-4d04-aa95-eb4b3da10c14">
        <time>
          <value>2017-06-01T20:08:49.345000Z</value>
        </time>
        <waveformID networkCode="NV" stationCode="KEMF" locationCode="" channelCode="EHE"></waveformID>
      </pick>
      <pick publicID="smi:local/2b0d0bda-8b6a-4c22-a663-23df266fbaaf">
        <time>
          <value>2017-06-01T20:08:47.920000Z</value>
        </time>
        <waveformID networkCode="NV" stationCode="KEMF" locationCode="" channelCode="EHZ"></waveformID>
      </pick>
      <pick publicID="smi:local/cc7a7373-860a-4031-a671-737460bec456">
        <time>
          <value>2017-06-01T20:08:48.690000Z</value>
        </time>
        <waveformID networkCode="NV" stationCode="NCHR" locationCode="" channelCode="EHE"></waveformID>
      </pick>
      <pick publicID="smi:local/91951501-350d-47e5-83b1-08d3f32d18fa">
        <time>
          <value>2017-06-01T20:08:47.460000Z</value>
        </time>
        <waveformID networkCode="NV" stationCode="NCHR" locationCode="" channelCode="EHZ"></waveformID>
      </pick>
    </event>
