<?xml version='1.0' encoding='utf-8'?>
<q:quakeml xmlns="http://quakeml.org/xmlns/bed/1.2" xmlns:q="http://quakeml.org/xmlns/quakeml/1.2">
  <eventParameters publicID="smi:local/4468ed3f-6e12-4394-9fa7-daa9f9fef085">
    <event publicID="smi:local/23a843d7-f566-4304-9ecc-1f0f7d49fec0">
      <origin publicID="smi:local/6b5d4798-1b71-4068-b167-03b784c649a5">
        <time>
          <value>2017-01-01T00:58:56.673000Z</value>
        </time>
        <latitude/>
        <longitude/>
      </origin>
      <pick publicID="smi:local/6ae8cdac-7860-48a9-a08c-1374c0ffd370">
        <time>
          <value>2017-01-01T00:58:58.550000Z</value>
        </time>
        <waveformID networkCode="NV" stationCode="KEMO" locationCode=""></waveformID>
        <phaseHint>S</phaseHint>
      </pick>
      <pick publicID="smi:local/be50145d-67a4-4552-a07e-6bb45c6af398">
        <time>
          <value>2017-01-01T00:58:55.250000Z</value>
        </time>
        <waveformID networkCode="NV" stationCode="NCHR" locationCode=""></waveformID>
        <phaseHint>P</phaseHint>
      </pick>
    </event>
    <event publicID="smi:local/4aded3cf-5559-4397-b274-afa7015d1238">
      <origin publicID="smi:local/256d71aa-ff09-4e4c-a8d9-88dd080a5281">
        <time>
          <value>2017-01-01T09:19:36.880000Z</value>
        </time>
        <latitude/>
        <longitude/>
      </origin>
      <pick publicID="smi:local/431b0d8f-ee38-4807-b37c-d78546e5e1d1">
        <time>
          <value>2017-01-01T09:19:36.600000Z</value>
        </time>
        <waveformID networkCode="NV" stationCode="NCHR" locationCode=""></waveformID>
        <phaseHint>P</phaseHint>
      </pick>
      <pick publicID="smi:local/bdf67fec-a02d-40f5-9133-a4c63649b337">
        <time>
          <value>2017-01-01T09:19:37.160000Z</value>
        </time>
        <waveformID networkCode="NV" stationCode="NCHR" locationCode=""></waveformID>
        <phaseHint>S</phaseHint>
      </pick>
    </event>
    <event publicID="smi:local/cfa0c449-f914-417b-84b7-5375ab2c96c1">
      <origin publicID="smi:local/586609ee-ba75-489a-ac4c-1deaf845eca7">
        <time>
          <value>2017-01-01T17:40:49.320000Z</value>
        </time>
        <latitude/>
        <longitude/>
      </origin>
      <pick publicID="smi:local/d3103f11-b304-459e-92d6-4e590569c954">
        <time>
          <value>2017-01-01T17:40:52.180000Z</value>
        </time>
        <waveformID networkCode="NV" stationCode="KEMF" locationCode=""></waveformID>
        <phaseHint>P</phaseHint>
      </pick>
      <pick publicID="smi:local/9eba5745-2973-4fc8-bf04-fb26d8936a38">
        <time>
          <value>2017-01-01T17:40:54.270000Z</value>
        </time>
        <waveformID networkCode="NV" stationCode="KEMF" locationCode=""></waveformID>
        <phaseHint>S</phaseHint>
      </pick>
      <pick publicID="smi:local/a18756f9-3098-440a-8668-0effb339e55f">
        <time>
          <value>2017-01-01T17:40:51.940000Z</value>
        </time>
        <waveformID networkCode="NV" stationCode="ENWF" locationCode=""></waveformID>
        <phaseHint>P</phaseHint>
      </pick>
      <pick publicID="smi:local/fc89c100-741b-4938-8996-eb9dabeaee7e">
        <time>
          <value>2017-01-01T17:40:53.990000Z</value>
        </time>
        <waveformID networkCode="NV" stationCode="ENWF" locationCode=""></waveformID>
        <phaseHint>S</phaseHint>
      </pick>
      <pick publicID="smi:local/26cec359-c301-4c72-87a7-3de9a1b0c8e8">
        <time>
          <value>2017-01-01T17:40:52.490000Z</value>
        </time>
        <waveformID networkCode="NV" stationCode="KEMO" locationCode=""></waveformID>
        <phaseHint>P</phaseHint>
      </pick>
      <pick publicID="smi:local/303b4244-2e5c-4e69-94ef-ca602e1949b0">
        <time>
          <value>2017-01-01T17:40:54.920000Z</value>
        </time>
        <waveformID networkCode="NV" stationCode="KEMO" locationCode=""></waveformID>
        <phaseHint>S</phaseHint>
      </pick>
      <pick publicID="smi:local/598359fc-2bd8-4fc6-8dfc-12dbb84db51c">
        <time>
          <value>2017-01-01T17:40:51.820000Z</value>
        </time>
        <waveformID networkCode="NV" stationCode="NCHR" locationCode=""></waveformID>
        <phaseHint>P</phaseHint>
      </pick>
      <pick publicID="smi:local/f81f9982-7b9d-47ff-8c85-ab71ce95266d">
        <time>
          <value>2017-01-01T17:40:53.680000Z</value>
        </time>
        <waveformID networkCode="NV" stationCode="NCHR" locationCode=""></waveformID>
        <phaseHint>S</phaseHint>
      </pick>
    </event>
    <event publicID="smi:local/2e756300-b18e-4aac-bce2-1f61d2bfa78f">
      <origin publicID="smi:local/8f0bd94a-fb39-4cd9-b9fb-f883c148944a">
        <time>
          <value>2017-01-01T17:40:57.636000Z</value>
        </time>
        <latitude/>
        <longitude/>
      </origin>
      <pick publicID="smi:local/6f55e1b8-9cda-4a55-b48d-0e3429dfcad1">
        <time>
          <value>2017-01-01T17:41:00.450000Z</value>
        </time>
        <waveformID networkCode="NV" stationCode="ENWF" locationCode=""></waveformID>
        <phaseHint>P</phaseHint>
      </pick>
      <pick publicID="smi:local/fa041b28-af8d-47ab-a99e-ba1c70abfdd8">
        <time>
          <value>2017-01-01T17:41:02.560000Z</value>
        </time>
        <waveformID networkCode="NV" stationCode="ENWF" locationCode=""></waveformID>
        <phaseHint>S</phaseHint>
      </pick>
    </event>
    <event publicID="smi:local/3f2a6cdf-a58f-4125-8125-cf41dbff80b6">
      <origin publicID="smi:local/44746bac-790f-4cb2-9c5f-14d0090ee01e">
        <time>
          <value>2017-01-01T18:22:38.550000Z</value>
        </time>
        <latitude/>
        <longitude/>
      </origin>
      <pick publicID="smi:local/77a68987-d31b-42ec-95fa-8d15eeabe3d9">
        <time>
          <value>2017-01-01T18:22:38.120000Z</value>
        </time>
        <waveformID networkCode="NV" stationCode="NCHR" locationCode=""></waveformID>
        <phaseHint>P</phaseHint>
      </pick>
      <pick publicID="smi:local/7d57b4c7-672a-495b-8f76-b2ff05cec988">
        <time>
          <value>2017-01-01T18:22:38.980000Z</value>
        </time>
        <waveformID networkCode="NV" stationCode="NCHR" locationCode=""></waveformID>
        <phaseHint>S</phaseHint>
      </pick>
    </event>
    <event publicID="smi:local/82361844-5f65-4544-a645-0827e6cb0505">
      <origin publicID="smi:local/8fa7956e-9426-43d2-a5b9-129990d1e92c">
        <time>
          <value>2017-01-01T18:35:08.125000Z</value>
        </time>
        <latitude/>
        <longitude/>
      </origin>
      <pick publicID="smi:local/5d9bc88e-5a62-4f15-8ffb-350d03307895">
        <time>
          <value>2017-01-01T18:35:07.670000Z</value>
        </time>
        <waveformID networkCode="NV" stationCode="NCHR" locationCode=""></waveformID>
        <phaseHint>P</phaseHint>
      </pick>
      <pick publicID="smi:local/e8fbeb5b-123d-4fca-b2ca-0d8676f88d9f">
        <time>
          <value>2017-01-01T18:35:08.580000Z</value>
        </time>
        <waveformID networkCode="NV" stationCode="NCHR" locationCode=""></waveformID>
        <phaseHint>S</phaseHint>
      </pick>
    </event>
    <event publicID="smi:local/fcec3fc9-e53b-470e-a385-3ce4aae77c29">
      <origin publicID="smi:local/cc53ef43-823b-4f74-855b-60e758ed3697">
        <time>
          <value>2017-01-01T19:06:13.750000Z</value>
        </time>
        <latitude/>
        <longitude/>
      </origin>
      <pick publicID="smi:local/d00dda45-1f66-466b-9a4c-e4cac5512e96">
        <time>
          <value>2017-01-01T19:06:13.880000Z</value>
        </time>
        <waveformID networkCode="NV" stationCode="KEMF" locationCode=""></waveformID>
        <phaseHint>P</phaseHint>
      </pick>
      <pick publicID="smi:local/9aa85b0d-4e3e-49ff-90ed-47e1d2015c28">
        <time>
          <value>2017-01-01T19:06:14.400000Z</value>
        </time>
        <waveformID networkCode="NV" stationCode="KEMF" locationCode=""></waveformID>
        <phaseHint>S</phaseHint>
      </pick>
      <pick publicID="smi:local/6592640b-aae5-4c80-a409-ac6c1e8af4c9">
        <time>
          <value>2017-01-01T19:06:13.960000Z</value>
        </time>
        <waveformID networkCode="NV" stationCode="ENWF" locationCode=""></waveformID>
        <phaseHint>P</phaseHint>
      </pick>
      <pick publicID="smi:local/ad960bc0-4630-4e20-9e29-f37ba09519a9">
        <time>
          <value>2017-01-01T19:06:14.650000Z</value>
        </time>
        <waveformID networkCode="NV" stationCode="ENWF" locationCode=""></waveformID>
        <phaseHint>S</phaseHint>
      </pick>
      <pick publicID="smi:local/a6c64dd4-583e-4ff6-b4c4-13107e6bd317">
        <time>
          <value>2017-01-01T19:06:13.870000Z</value>
        </time>
        <waveformID networkCode="NV" stationCode="NCHR" locationCode=""></waveformID>
        <phaseHint>P</phaseHint>
      </pick>
      <pick publicID="smi:local/7cd67e5b-28a2-48f7-9e3b-7b74c3235601">
        <time>
          <value>2017-01-01T19:06:14.410000Z</value>
        </time>
        <waveformID networkCode="NV" stationCode="NCHR" locationCode=""></waveformID>
        <phaseHint>S</phaseHint>
      </pick>
    </event>
    <event publicID="smi:local/565c7751-3e98-4913-badc-db8556fa9f12">
      <origin publicID="smi:local/d3e341ae-c61a-43b2-89d5-ca970a8e704d">
        <time>
          <value>2017-01-01T19:44:43.650000Z</value>
        </time>
        <latitude/>
        <longitude/>
      </origin>
      <pick publicID="smi:local/18680035-26d1-4048-8547-6b38359cb0c4">
        <time>
          <value>2017-01-01T19:44:43.370000Z</value>
        </time>
        <waveformID networkCode="NV" stationCode="NCHR" locationCode=""></waveformID>
        <phaseHint>P</phaseHint>
      </pick>
      <pick publicID="smi:local/7afbadaf-61b9-40f4-b9b3-ec635d36a3f2">
        <time>
          <value>2017-01-01T19:44:43.930000Z</value>
        </time>
        <waveformID networkCode="NV" stationCode="NCHR" locationCode=""></waveformID>
        <phaseHint>S</phaseHint>
      </pick>
    </event>
    <event publicID="smi:local/6596b39d-3189-4e2c-a3f0-548aed39aac1">
      <origin publicID="smi:local/5edf29d2-8170-44c6-965f-9f1851ff75c7">
        <time>
          <value>2017-01-01T21:29:54.545000Z</value>
        </time>
        <latitude/>
        <longitude/>
      </origin>
      <pick publicID="smi:local/7ee115f9-8ccd-4448-8020-9e309154db6b">
        <time>
          <value>2017-01-01T21:29:54.250000Z</value>
        </time>
        <waveformID networkCode="NV" stationCode="NCHR" locationCode=""></waveformID>
        <phaseHint>P</phaseHint>
      </pick>
      <pick publicID="smi:local/4ad702f6-5d1f-4c9e-a68b-0fd2e1dc81b7">
        <time>
          <value>2017-01-01T21:29:54.840000Z</value>
        </time>
        <waveformID networkCode="NV" stationCode="NCHR" locationCode=""></waveformID>
        <phaseHint>S</phaseHint>
      </pick>
    </event>
    <event publicID="smi:local/2e0d7f69-229b-4ffe-81b8-a89e976d3b6e">
      <origin publicID="smi:local/0ff29956-d381-4f02-b0a9-2cfdfb89db1c">
        <time>
          <value>2017-01-02T04:49:28.331000Z</value>
        </time>
        <latitude/>
        <longitude/>
      </origin>
      <pick publicID="smi:local/a85feecc-fda1-4ac6-806f-f6dc1ec44d8e">
        <time>
          <value>2017-01-02T04:49:30.210000Z</value>
        </time>
        <waveformID networkCode="NV" stationCode="NCHR" locationCode=""></waveformID>
        <phaseHint>S</phaseHint>
      </pick>
      <pick publicID="smi:local/ac5e4bd5-8061-4f33-89ef-159543a3a459">
        <time>
          <value>2017-01-02T04:49:29.250000Z</value>
        </time>
        <waveformID networkCode="NV" stationCode="KEMO" locationCode=""></waveformID>
        <phaseHint>S</phaseHint>
      </pick>
    </event>
    <event publicID="smi:local/6d18a7fb-264e-4cab-a4d4-67aebfb40ad3">
      <origin publicID="smi:local/92c3c03e-37ad-4df7-837b-23372c866cb3">
        <time>
          <value>2017-01-02T05:58:16.980000Z</value>
        </time>
        <latitude/>
        <longitude/>
      </origin>
      <pick publicID="smi:local/66cff49b-0c3a-40f6-941b-bb1d06b00a3b">
        <time>
          <value>2017-01-02T05:58:16.670000Z</value>
        </time>
        <waveformID networkCode="NV" stationCode="NCHR" locationCode=""></waveformID>
        <phaseHint>P</phaseHint>
      </pick>
      <pick publicID="smi:local/cea42b9d-1213-41f4-8fab-e5ee07cd9f3d">
        <time>
          <value>2017-01-02T05:58:17.290000Z</value>
        </time>
        <waveformID networkCode="NV" stationCode="NCHR" locationCode=""></waveformID>
        <phaseHint>S</phaseHint>
      </pick>
    </event>
    <event publicID="smi:local/955e31f9-91b0-436a-9664-43d9644849ea">
      <origin publicID="smi:local/90629731-1d3d-4d9d-a5fe-11ba0201bd06">
        <time>
          <value>2017-01-02T06:11:41.621000Z</value>
        </time>
        <latitude/>
        <longitude/>
      </origin>
      <pick publicID="smi:local/1b6036b3-6f2e-43cb-a4f8-d0830a4b74e7">
        <time>
          <value>2017-01-02T06:11:42.300000Z</value>
        </time>
        <waveformID networkCode="NV" stationCode="NCHR" locationCode=""></waveformID>
        <phaseHint>P</phaseHint>
      </pick>
      <pick publicID="smi:local/0b294c0d-cb3b-4f49-83b1-3bce5a4d1fb4">
        <time>
          <value>2017-01-02T06:11:42.880000Z</value>
        </time>
        <waveformID networkCode="NV" stationCode="NCHR" locationCode=""></waveformID>
        <phaseHint>S</phaseHint>
      </pick>
      <pick publicID="smi:local/8fecdacd-5e32-4872-86ed-c3f178c06e95">
        <time>
          <value>2017-01-02T06:11:42.370000Z</value>
        </time>
        <waveformID networkCode="NV" stationCode="KEMF" locationCode=""></waveformID>
        <phaseHint>P</phaseHint>
      </pick>
      <pick publicID="smi:local/34f6de8f-677e-4a6e-8903-20547fab7b48">
        <time>
          <value>2017-01-02T06:11:42.870000Z</value>
        </time>
        <waveformID networkCode="NV" stationCode="KEMF" locationCode=""></waveformID>
        <phaseHint>S</phaseHint>
      </pick>
      <pick publicID="smi:local/96449566-eeb6-4a8e-846c-2c0a952a57d6">
        <time>
          <value>2017-01-02T06:11:42.730000Z</value>
        </time>
        <waveformID networkCode="NV" stationCode="KEMO" locationCode=""></waveformID>
        <phaseHint>P</phaseHint>
      </pick>
      <pick publicID="smi:local/4adf0b30-c150-4902-9ceb-87f39fc2c2fa">
        <time>
          <value>2017-01-02T06:11:43.650000Z</value>
        </time>
        <waveformID networkCode="NV" stationCode="KEMO" locationCode=""></waveformID>
        <phaseHint>S</phaseHint>
      </pick>
      <pick publicID="smi:local/5467111c-dba8-4f10-be6b-5ded541e5038">
        <time>
          <value>2017-01-02T06:11:42.450000Z</value>
        </time>
        <waveformID networkCode="NV" stationCode="ENWF" locationCode=""></waveformID>
        <phaseHint>P</phaseHint>
      </pick>
      <pick publicID="smi:local/a15fe48b-660c-4910-84fa-7392e7504323">
        <time>
          <value>2017-01-02T06:11:43.110000Z</value>
        </time>
        <waveformID networkCode="NV" stationCode="ENWF" locationCode=""></waveformID>
        <phaseHint>S</phaseHint>
      </pick>
    </event>
    <event publicID="smi:local/f0e88288-5557-4137-9677-80d974ce7cc8">
      <origin publicID="smi:local/822e56ce-e8f6-4f64-bf4f-578df2ffea69">
        <time>
          <value>2017-01-02T06:12:10.141000Z</value>
        </time>
        <latitude/>
        <longitude/>
      </origin>
      <pick publicID="smi:local/94640b37-1960-49ed-9cfa-b8c0ea6c4b0b">
        <time>
          <value>2017-01-02T06:12:10.840000Z</value>
        </time>
        <waveformID networkCode="NV" stationCode="NCHR" locationCode=""></waveformID>
        <phaseHint>P</phaseHint>
      </pick>
      <pick publicID="smi:local/a1616e4e-b986-41fd-931d-025bfa3e1111">
        <time>
          <value>2017-01-02T06:12:11.420000Z</value>
        </time>
        <waveformID networkCode="NV" stationCode="NCHR" locationCode=""></waveformID>
        <phaseHint>S</phaseHint>
      </pick>
      <pick publicID="smi:local/3ca77f76-fb74-48c7-ab59-498a3c75b305">
        <time>
          <value>2017-01-02T06:12:10.920000Z</value>
        </time>
        <waveformID networkCode="NV" stationCode="KEMF" locationCode=""></waveformID>
        <phaseHint>P</phaseHint>
      </pick>
      <pick publicID="smi:local/897dab7c-5a3c-4c7c-a126-6fd7d830709c">
        <time>
          <value>2017-01-02T06:12:11.440000Z</value>
        </time>
        <waveformID networkCode="NV" stationCode="KEMF" locationCode=""></waveformID>
        <phaseHint>S</phaseHint>
      </pick>
      <pick publicID="smi:local/e46f2e5b-34bd-402a-8507-8e539bbaf993">
        <time>
          <value>2017-01-02T06:12:11.270000Z</value>
        </time>
        <waveformID networkCode="NV" stationCode="KEMO" locationCode=""></waveformID>
        <phaseHint>P</phaseHint>
      </pick>
      <pick publicID="smi:local/96833f84-24fa-49df-8278-cdd7127b61ac">
        <time>
          <value>2017-01-02T06:12:12.180000Z</value>
        </time>
        <waveformID networkCode="NV" stationCode="KEMO" locationCode=""></waveformID>
        <phaseHint>S</phaseHint>
      </pick>
      <pick publicID="smi:local/b38e6dc3-623b-4c90-8ce5-4cf1a52bcb95">
        <time>
          <value>2017-01-02T06:12:10.990000Z</value>
        </time>
        <waveformID networkCode="NV" stationCode="ENWF" locationCode=""></waveformID>
        <phaseHint>P</phaseHint>
      </pick>
      <pick publicID="smi:local/e2eddbf3-c6f0-4a7a-9be3-b8d34cda7b45">
        <time>
          <value>2017-01-02T06:12:11.700000Z</value>
        </time>
        <waveformID networkCode="NV" stationCode="ENWF" locationCode=""></waveformID>
        <phaseHint>S</phaseHint>
      </pick>
    </event>
    <event publicID="smi:local/9f163415-4b9e-4954-877a-62855dc04fb9">
      <origin publicID="smi:local/b395ba5e-681a-438e-bffe-c763be0353bc">
        <time>
          <value>2017-01-02T06:14:14.277000Z</value>
        </time>
        <latitude/>
        <longitude/>
      </origin>
      <pick publicID="smi:local/6b81874b-c1e7-4be8-820c-d48ab9a71a6e">
        <time>
          <value>2017-01-02T06:14:14.360000Z</value>
        </time>
        <waveformID networkCode="NV" stationCode="NCHR" locationCode=""></waveformID>
        <phaseHint>P</phaseHint>
      </pick>
      <pick publicID="smi:local/e80a1da3-9c5a-48b0-949b-4e52ae2d85f4">
        <time>
          <value>2017-01-02T06:14:14.930000Z</value>
        </time>
        <waveformID networkCode="NV" stationCode="NCHR" locationCode=""></waveformID>
        <phaseHint>S</phaseHint>
      </pick>
      <pick publicID="smi:local/df4bb6b4-feac-446b-8c08-f732dc5114fb">
        <time>
          <value>2017-01-02T06:14:14.430000Z</value>
        </time>
        <waveformID networkCode="NV" stationCode="KEMF" locationCode=""></waveformID>
        <phaseHint>P</phaseHint>
      </pick>
      <pick publicID="smi:local/1ea1a030-35ae-4d1b-8bea-5a10a32b47cb">
        <time>
          <value>2017-01-02T06:14:14.950000Z</value>
        </time>
        <waveformID networkCode="NV" stationCode="KEMF" locationCode=""></waveformID>
        <phaseHint>S</phaseHint>
      </pick>
      <pick publicID="smi:local/76937cd5-8e54-4951-a657-0ef379379a2d">
        <time>
          <value>2017-01-02T06:14:14.460000Z</value>
        </time>
        <waveformID networkCode="NV" stationCode="ENWF" locationCode=""></waveformID>
        <phaseHint>P</phaseHint>
      </pick>
      <pick publicID="smi:local/8a82aaeb-3737-4726-bd6d-27a5b033fa59">
        <time>
          <value>2017-01-02T06:14:15.190000Z</value>
        </time>
        <waveformID networkCode="NV" stationCode="ENWF" locationCode=""></waveformID>
        <phaseHint>S</phaseHint>
      </pick>
    </event>
    <event publicID="smi:local/99ec1e72-9e55-430e-ada9-a604ecb641c0">
