<?xml version='1.0' encoding='utf-8'?>
<q:quakeml xmlns="http://quakeml.org/xmlns/bed/1.2" xmlns:q="http://quakeml.org/xmlns/quakeml/1.2">
  <eventParameters publicID="smi:local/efa11e71-39dd-48c6-9076-c69a534b12a5">
    <event publicID="smi:local/7a11ad35-3461-47f1-9a58-c868910f7c17">
      <origin publicID="smi:local/ce0bc191-f25c-409a-970a-1a2602932b80">
        <time>
          <value>2017-06-01T00:25:14.302000Z</value>
        </time>
        <latitude/>
        <longitude/>
      </origin>
      <pick publicID="smi:local/d4289eca-c10e-4ea9-9d15-ab78fabf17e8">
        <time>
          <value>2017-06-01T00:25:15.810000Z</value>
        </time>
        <waveformID networkCode="NV" stationCode="ENWF" locationCode=""></waveformID>
        <phaseHint>P</phaseHint>
      </pick>
      <pick publicID="smi:local/59702096-ca27-4066-99e3-f97bf1ba31ca">
        <time>
          <value>2017-06-01T00:25:16.950000Z</value>
        </time>
        <waveformID networkCode="NV" stationCode="ENWF" locationCode=""></waveformID>
        <phaseHint>S</phaseHint>
      </pick>
      <pick publicID="smi:local/85ad1781-dfcc-4a53-b90e-105370631dd8">
        <time>
          <value>2017-06-01T00:25:15.890000Z</value>
        </time>
        <waveformID networkCode="NV" stationCode="KEMF" locationCode=""></waveformID>
        <phaseHint>P</phaseHint>
      </pick>
      <pick publicID="smi:local/9c486da8-6fed-4acc-ad6b-258a596bddbb">
        <time>
          <value>2017-06-01T00:25:17.090000Z</value>
        </time>
        <waveformID networkCode="NV" stationCode="KEMF" locationCode=""></waveformID>
        <phaseHint>S</phaseHint>
      </pick>
      <pick publicID="smi:local/3cab49bc-b0d1-4b7c-9c73-9dada69934ca">
        <time>
          <value>2017-06-01T00:25:15.560000Z</value>
        </time>
        <waveformID networkCode="NV" stationCode="NCHR" locationCode=""></waveformID>
        <phaseHint>P</phaseHint>
      </pick>
      <pick publicID="smi:local/d2e430d3-91b8-4725-be4b-074322dccba0">
        <time>
          <value>2017-06-01T00:25:16.510000Z</value>
        </time>
        <waveformID networkCode="NV" stationCode="NCHR" locationCode=""></waveformID>
        <phaseHint>S</phaseHint>
      </pick>
    </event>
    <event publicID="smi:local/7353909f-b89e-4bbc-ba60-660de6457fac">
      <origin publicID="smi:local/d12ae88c-f7c6-4e86-9c07-8fbd466dd55c">
        <time>
          <value>2017-06-01T00:25:33.162000Z</value>
        </time>
        <latitude/>
        <longitude/>
      </origin>
      <pick publicID="smi:local/80cbe15b-3d84-4af6-9f06-220892670d9f">
        <time>
          <value>2017-06-01T00:25:34.370000Z</value>
        </time>
        <waveformID networkCode="NV" stationCode="ENWF" locationCode=""></waveformID>
        <phaseHint>P</phaseHint>
      </pick>
      <pick publicID="smi:local/3535044d-31c2-4b85-af05-7e9e9bd1be75">
        <time>
          <value>2017-06-01T00:25:35.460000Z</value>
        </time>
        <waveformID networkCode="NV" stationCode="ENWF" locationCode=""></waveformID>
        <phaseHint>S</phaseHint>
      </pick>
      <pick publicID="smi:local/ac9f4669-fbe4-42f4-8e95-51f5bfafc92c">
        <time>
          <value>2017-06-01T00:25:34.470000Z</value>
        </time>
        <waveformID networkCode="NV" stationCode="KEMF" locationCode=""></waveformID>
        <phaseHint>P</phaseHint>
      </pick>
      <pick publicID="smi:local/5631b670-2595-4b38-9583-15825b963da5">
        <time>
          <value>2017-06-01T00:25:35.560000Z</value>
        </time>
        <waveformID networkCode="NV" stationCode="KEMF" locationCode=""></waveformID>
        <phaseHint>S</phaseHint>
      </pick>
      <pick publicID="smi:local/4a02230d-977b-4142-9ccb-5f9fa7b73137">
        <time>
          <value>2017-06-01T00:25:34.370000Z</value>
        </time>
        <waveformID networkCode="NV" stationCode="NCHR" locationCode=""></waveformID>
        <phaseHint>P</phaseHint>
      </pick>
      <pick publicID="smi:local/4813b481-0073-496d-b3d5-c052e60e0edb">
        <time>
          <value>2017-06-01T00:25:35.040000Z</value>
        </time>
        <waveformID networkCode="NV" stationCode="NCHR" locationCode=""></waveformID>
        <phaseHint>S</phaseHint>
      </pick>
    </event>
    <event publicID="smi:local/a291afe0-21e7-4132-b304-be5f05d6371d">
      <origin publicID="smi:local/6c0e2934-4c4a-499e-a7ac-65350369afbc">
        <time>
          <value>2017-06-01T00:25:46.633000Z</value>
        </time>
        <latitude/>
        <longitude/>
      </origin>
      <pick publicID="smi:local/ba6a4073-6d49-41b9-bd06-b2f2b58a8ac6">
        <time>
          <value>2017-06-01T00:25:47.700000Z</value>
        </time>
        <waveformID networkCode="NV" stationCode="NCHR" locationCode=""></waveformID>
        <phaseHint>P</phaseHint>
      </pick>
      <pick publicID="smi:local/075daffa-5030-44f1-badc-850860ed6ebb">
        <time>
          <value>2017-06-01T00:25:48.500000Z</value>
        </time>
        <waveformID networkCode="NV" stationCode="NCHR" locationCode=""></waveformID>
        <phaseHint>S</phaseHint>
      </pick>
    </event>
    <event publicID="smi:local/7e75d09a-50f3-4fd9-8362-a2f876a8252e">
      <origin publicID="smi:local/d9067fa9-d7ca-49b1-8100-e504fcc92a27">
        <time>
          <value>2017-06-01T03:23:08.410000Z</value>
        </time>
        <latitude/>
        <longitude/>
      </origin>
      <pick publicID="smi:local/cb6afe4d-48b8-4c94-87a9-1474ebf91be6">
        <time>
          <value>2017-06-01T03:23:08.410000Z</value>
        </time>
        <waveformID networkCode="NV" stationCode="NCHR" locationCode=""></waveformID>
        <phaseHint>S</phaseHint>
      </pick>
    </event>
    <event publicID="smi:local/206be0bc-1b7e-4d35-9e62-a210f95d53f9">
      <origin publicID="smi:local/8d39daff-9972-43a1-b63f-637d22f5ce7a">
        <time>
          <value>2017-06-01T03:59:39.131000Z</value>
        </time>
        <latitude/>
        <longitude/>
      </origin>
      <pick publicID="smi:local/95f22687-f1b8-461f-be1c-729e6206b4bd">
        <time>
          <value>2017-06-01T03:59:50.980000Z</value>
        </time>
        <waveformID networkCode="NV" stationCode="ENWF" locationCode=""></waveformID>
        <phaseHint>P</phaseHint>
      </pick>
      <pick publicID="smi:local/ca8d0f07-bd61-4f4f-8ea3-79a4b48577ba">
        <time>
          <value>2017-06-01T03:59:50.000000Z</value>
        </time>
        <waveformID networkCode="NV" stationCode="KEMF" locationCode=""></waveformID>
        <phaseHint>P</phaseHint>
      </pick>
      <pick publicID="smi:local/37e4393a-a0b2-4d87-88d9-813f4739a0b4">
        <time>
          <value>2017-06-01T03:59:50.000000Z</value>
        </time>
        <waveformID networkCode="NV" stationCode="KEMO" locationCode=""></waveformID>
        <phaseHint>P</phaseHint>
      </pick>
      <pick publicID="smi:local/271c0054-f44a-450e-acab-46b4e611c927">
        <time>
          <value>2017-06-01T03:59:59.080000Z</value>
        </time>
        <waveformID networkCode="NV" stationCode="KEMO" locationCode=""></waveformID>
        <phaseHint>S</phaseHint>
      </pick>
      <pick publicID="smi:local/e3c3dddc-6eff-4fd1-ab9a-f98b68b38937">
        <time>
          <value>2017-06-01T03:59:50.010000Z</value>
        </time>
        <waveformID networkCode="NV" stationCode="NCHR" locationCode=""></waveformID>
        <phaseHint>P</phaseHint>
      </pick>
      <pick publicID="smi:local/0f17ab15-6839-4665-ab42-fb81f2fa510a">
        <time>
          <value>2017-06-01T03:59:59.450000Z</value>
        </time>
        <waveformID networkCode="NV" stationCode="NCHR" locationCode=""></waveformID>
        <phaseHint>S</phaseHint>
      </pick>
    </event>
    <event publicID="smi:local/596837dd-4280-4f19-8aa2-078f636eb5f9">
      <origin publicID="smi:local/7762368c-d82d-44f9-9d33-de0d1d91629e">
        <time>
          <value>2017-06-01T04:00:00.580000Z</value>
        </time>
        <latitude/>
        <longitude/>
      </origin>
      <pick publicID="smi:local/07a8c4b7-3428-4780-aeb8-a87ff0c631fa">
        <time>
          <value>2017-06-01T04:00:00.580000Z</value>
        </time>
        <waveformID networkCode="NV" stationCode="KEMF" locationCode=""></waveformID>
        <phaseHint>S</phaseHint>
      </pick>
    </event>
    <event publicID="smi:local/52771fa2-140a-4883-a23b-978fcdfe36cd">
      <origin publicID="smi:local/a623bb64-d7dd-41c2-8650-9c2e4d179b09">
        <time>
          <value>2017-06-01T04:12:59.640000Z</value>
        </time>
        <latitude/>
        <longitude/>
      </origin>
      <pick publicID="smi:local/a4260f1f-849c-4d10-9062-c201b15ddec1">
        <time>
          <value>2017-06-01T04:12:59.640000Z</value>
        </time>
        <waveformID networkCode="NV" stationCode="KEMO" locationCode=""></waveformID>
        <phaseHint>S</phaseHint>
      </pick>
    </event>
    <event publicID="smi:local/5317aad5-fd24-4225-a8ed-393ab4fb37f3">
      <origin publicID="smi:local/519aa869-a3ed-4540-b9ad-3a3ca6f1d686">
        <time>
          <value>2017-06-01T08:23:43.494000Z</value>
        </time>
        <latitude/>
        <longitude/>
      </origin>
      <pick publicID="smi:local/14fe91b9-8cfa-4bf6-9cf0-ab18f52f5910">
        <time>
          <value>2017-06-01T08:23:46.150000Z</value>
        </time>
        <waveformID networkCode="NV" stationCode="ENWF" locationCode=""></waveformID>
        <phaseHint>P</phaseHint>
      </pick>
      <pick publicID="smi:local/947a7b6f-8c12-465d-87a8-2bdc02d79eb0">
        <time>
          <value>2017-06-01T08:23:47.910000Z</value>
        </time>
        <waveformID networkCode="NV" stationCode="ENWF" locationCode=""></waveformID>
        <phaseHint>S</phaseHint>
      </pick>
      <pick publicID="smi:local/3c19cac5-a3c8-4523-95c9-7466cee2c24d">
        <time>
          <value>2017-06-01T08:23:46.390000Z</value>
        </time>
        <waveformID networkCode="NV" stationCode="KEMF" locationCode=""></waveformID>
        <phaseHint>P</phaseHint>
      </pick>
      <pick publicID="smi:local/65d140e3-20e3-4eaf-88a9-e282d5bce62e">
        <time>
          <value>2017-06-01T08:23:48.160000Z</value>
        </time>
        <waveformID networkCode="NV" stationCode="KEMF" locationCode=""></waveformID>
        <phaseHint>S</phaseHint>
      </pick>
      <pick publicID="smi:local/7fe7ae15-fe61-4b13-9c5f-d7d6ff71eea2">
        <time>
          <value>2017-06-01T08:23:47.080000Z</value>
        </time>
        <waveformID networkCode="NV" stationCode="KEMO" locationCode=""></waveformID>
        <phaseHint>P</phaseHint>
      </pick>
      <pick publicID="smi:local/d14c9476-2e88-4a0f-ad9b-70620e787847">
        <time>
          <value>2017-06-01T08:23:48.940000Z</value>
        </time>
        <waveformID networkCode="NV" stationCode="KEMO" locationCode=""></waveformID>
        <phaseHint>S</phaseHint>
      </pick>
      <pick publicID="smi:local/9cde9248-a5cd-4424-9caf-556f28715f41">
        <time>
          <value>2017-06-01T08:23:45.970000Z</value>
        </time>
        <waveformID networkCode="NV" stationCode="NCHR" locationCode=""></waveformID>
        <phaseHint>P</phaseHint>
      </pick>
      <pick publicID="smi:local/95f09a3c-6c30-4be2-ae36-a15d9c872f76">
        <time>
          <value>2017-06-01T08:23:47.550000Z</value>
        </time>
        <waveformID networkCode="NV" stationCode="NCHR" locationCode=""></waveformID>
        <phaseHint>S</phaseHint>
      </pick>
    </event>
    <event publicID="smi:local/50265d02-650f-4059-bc2b-1c0af79e5e20">
      <origin publicID="smi:local/458da77d-26c2-40a2-88ab-fb0f14c811a2">
        <time>
          <value>2017-06-01T08:24:14.752000Z</value>
        </time>
        <latitude/>
        <longitude/>
      </origin>
      <pick publicID="smi:local/a58460b0-b0fb-4ad5-8ed6-11e50fa42bee">
        <time>
          <value>2017-06-01T08:24:15.950000Z</value>
        </time>
        <waveformID networkCode="NV" stationCode="KEMO" locationCode=""></waveformID>
        <phaseHint>P</phaseHint>
      </pick>
      <pick publicID="smi:local/a0ca5c89-3a21-48c8-92a5-083f339bd029">
        <time>
          <value>2017-06-01T08:24:14.820000Z</value>
        </time>
        <waveformID networkCode="NV" stationCode="NCHR" locationCode=""></waveformID>
        <phaseHint>P</phaseHint>
      </pick>
      <pick publicID="smi:local/a5125fd9-a969-4bb3-aaa1-0d805a11ab5d">
        <time>
          <value>2017-06-01T08:24:16.410000Z</value>
        </time>
        <waveformID networkCode="NV" stationCode="NCHR" locationCode=""></waveformID>
        <phaseHint>S</phaseHint>
      </pick>
    </event>
    <event publicID="smi:local/25eb4a9f-4d48-4faa-a714-be04a465eff0">
      <origin publicID="smi:local/10f39ce1-9eb0-4c25-9c2e-287db4d4a36e">
        <time>
          <value>2017-06-01T08:24:42.986000Z</value>
        </time>
        <latitude/>
        <longitude/>
      </origin>
      <pick publicID="smi:local/f70304da-6d07-48fe-9340-436d60c82fc0">
        <time>
          <value>2017-06-01T08:24:45.150000Z</value>
        </time>
        <waveformID networkCode="NV" stationCode="ENWF" locationCode=""></waveformID>
        <phaseHint>P</phaseHint>
      </pick>
      <pick publicID="smi:local/db868ba3-77aa-464b-8ca1-3ef46f3a3dd0">
        <time>
          <value>2017-06-01T08:24:46.190000Z</value>
        </time>
        <waveformID networkCode="NV" stationCode="ENWF" locationCode=""></waveformID>
        <phaseHint>S</phaseHint>
      </pick>
      <pick publicID="smi:local/90d15a7a-9cde-496d-9508-5a26afaf6bdc">
        <time>
          <value>2017-06-01T08:24:44.190000Z</value>
        </time>
        <waveformID networkCode="NV" stationCode="NCHR" locationCode=""></waveformID>
        <phaseHint>P</phaseHint>
      </pick>
      <pick publicID="smi:local/5cf8dbbf-0165-44a4-a9cf-1d82d6e0fdfb">
        <time>
          <value>2017-06-01T08:24:45.850000Z</value>
        </time>
        <waveformID networkCode="NV" stationCode="NCHR" locationCode=""></waveformID>
        <phaseHint>S</phaseHint>
      </pick>
    </event>
    <event publicID="smi:local/83eb704c-7e4d-431f-8d9d-ba44d7f6f286">
      <origin publicID="smi:local/8f47aba5-69b1-4622-90e5-3aef8024286f">
        <time>
          <value>2017-06-01T08:25:13.890000Z</value>
        </time>
        <latitude/>
        <longitude/>
      </origin>
      <pick publicID="smi:local/1de51539-641f-4f93-b263-d6a7e0998bf4">
        <time>
          <value>2017-06-01T08:25:15.810000Z</value>
        </time>
        <waveformID networkCode="NV" stationCode="NCHR" locationCode=""></waveformID>
        <phaseHint>P</phaseHint>
      </pick>
      <pick publicID="smi:local/bc440b85-80c4-4b30-b9e3-15923428d443">
        <time>
          <value>2017-06-01T08:25:17.250000Z</value>
        </time>
        <waveformID networkCode="NV" stationCode="NCHR" locationCode=""></waveformID>
        <phaseHint>S</phaseHint>
      </pick>
    </event>
    <event publicID="smi:local/771fc7f7-7204-4a6d-8377-15fb74ae50b1">
      <origin publicID="smi:local/20d2f1d2-ea30-4068-a924-bbd80881bd92">
        <time>
          <value>2017-06-01T08:33:55.098000Z</value>
        </time>
        <latitude/>
        <longitude/>
      </origin>
      <pick publicID="smi:local/bf4156dd-811c-452e-88ad-deeb3404bdf9">
        <time>
          <value>2017-06-01T08:33:57.400000Z</value>
        </time>
        <waveformID networkCode="NV" stationCode="ENWF" locationCode=""></waveformID>
        <phaseHint>P</phaseHint>
      </pick>
      <pick publicID="smi:local/96dacf61-1d82-4275-97d5-e5ddcbfdff3d">
        <time>
          <value>2017-06-01T08:33:59.200000Z</value>
        </time>
        <waveformID networkCode="NV" stationCode="ENWF" locationCode=""></waveformID>
        <phaseHint>S</phaseHint>
      </pick>
      <pick publicID="smi:local/1429ddc9-e130-4061-932c-e4438d5d7c99">
        <time>
          <value>2017-06-01T08:33:57.520000Z</value>
        </time>
        <waveformID networkCode="NV" stationCode="KEMF" locationCode=""></waveformID>
        <phaseHint>P</phaseHint>
      </pick>
      <pick publicID="smi:local/161052cc-2ee0-4aa5-b795-18e7575bac61">
        <time>
          <value>2017-06-01T08:33:59.410000Z</value>
        </time>
        <waveformID networkCode="NV" stationCode="KEMF" locationCode=""></waveformID>
        <phaseHint>S</phaseHint>
      </pick>
      <pick publicID="smi:local/00dd7216-41e7-4e41-9e43-aac958bbd124">
        <time>
          <value>2017-06-01T08:34:00.160000Z</value>
        </time>
        <waveformID networkCode="NV" stationCode="KEMO" locationCode=""></waveformID>
        <phaseHint>S</phaseHint>
      </pick>
      <pick publicID="smi:local/5226a28e-548a-47bc-8c55-2507c09c3b2f">
        <time>
          <value>2017-06-01T08:33:57.220000Z</value>
        </time>
        <waveformID networkCode="NV" stationCode="NCHR" locationCode=""></waveformID>
        <phaseHint>P</phaseHint>
      </pick>
      <pick publicID="smi:local/127f1c76-b0d8-4d16-ae89-4cd352e5ee14">
        <time>
          <value>2017-06-01T08:33:58.810000Z</value>
        </time>
        <waveformID networkCode="NV" stationCode="NCHR" locationCode=""></waveformID>
        <phaseHint>S</phaseHint>
      </pick>
    </event>
    <event publicID="smi:local/7d9b13c7-ac7f-49db-b0dc-ec7b001c8954">
      <origin publicID="smi:local/d8a0f676-6def-4148-8d29-c9d8be4f6c52">
        <time>
          <value>2017-06-01T08:34:22.915000Z</value>
        </time>
        <latitude/>
        <longitude/>
      </origin>
      <pick publicID="smi:local/315322f2-cbc8-4b81-ba98-f182ae3de745">
        <time>
          <value>2017-06-01T08:34:25.670000Z</value>
        </time>
        <waveformID networkCode="NV" stationCode="ENWF" locationCode=""></waveformID>
        <phaseHint>P</phaseHint>
      </pick>
      <pick publicID="smi:local/8ae9ef41-0ebd-4ef8-a301-5af7acada38a">
        <time>
          <value>2017-06-01T08:34:27.410000Z</value>
        </time>
        <waveformID networkCode="NV" stationCode="ENWF" locationCode=""></waveformID>
        <phaseHint>S</phaseHint>
      </pick>
      <pick publicID="smi:local/00c62d70-229a-4371-912a-827834d8819f">
        <time>
          <value>2017-06-01T08:34:25.850000Z</value>
        </time>
        <waveformID networkCode="NV" stationCode="KEMF" locationCode=""></waveformID>
        <phaseHint>P</phaseHint>
      </pick>
      <pick publicID="smi:local/df0586f4-6eec-4622-b07a-1a66cf29d0d7">
        <time>
          <value>2017-06-01T08:34:27.670000Z</value>
        </time>
        <waveformID networkCode="NV" stationCode="KEMF" locationCode=""></waveformID>
        <phaseHint>S</phaseHint>
      </pick>
      <pick publicID="smi:local/7db68c27-6577-4327-a4b7-1ef16ee07b5b">
        <time>
          <value>2017-06-01T08:34:26.510000Z</value>
        </time>
        <waveformID networkCode="NV" stationCode="KEMO" locationCode=""></waveformID>
        <phaseHint>P</phaseHint>
      </pick>
      <pick publicID="smi:local/83926193-daed-42a8-a744-f5d785231ad1">
        <time>
          <value>2017-06-01T08:34:28.460000Z</value>
        </time>
        <waveformID networkCode="NV" stationCode="KEMO" locationCode=""></waveformID>
        <phaseHint>S</phaseHint>
      </pick>
      <pick publicID="smi:local/0717709e-b41f-455c-a616-cd9cacbc77e8">
        <time>
          <value>2017-06-01T08:34:25.440000Z</value>
        </time>
        <waveformID networkCode="NV" stationCode="NCHR" locationCode=""></waveformID>
        <phaseHint>P</phaseHint>
      </pick>
      <pick publicID="smi:local/7caf95e0-b128-4c87-add9-016808a16653">
        <time>
          <value>2017-06-01T08:34:27.040000Z</value>
        </time>
        <waveformID networkCode="NV" stationCode="NCHR" locationCode=""></waveformID>
        <phaseHint>S</phaseHint>
      </pick>
    </event>
    <event publicID="smi:local/cfd1f746-a99f-4d87-8f42-086b3f8dd644">
