<?xml version='1.0' encoding='utf-8'?>
<q:quakeml xmlns="http://quakeml.org/xmlns/bed/1.2" xmlns:q="http://quakeml.org/xmlns/quakeml/1.2">
  <eventParameters publicID="smi:local/3e8223d0-e32c-429e-b8d9-f887badfed2e">
    <event publicID="smi:local/3edf8543-675f-42b4-89a9-fb99c7eecb03">
      <origin publicID="smi:local/c0aadc2a-3460-44d2-a607-a15890ca7db3">
        <time>
          <value>2018-01-01T06:44:24.480000Z</value>
        </time>
        <latitude/>
        <longitude/>
      </origin>
      <pick publicID="smi:local/bd598de7-fa7f-49ae-89a8-10b0d5c73467">
        <time>
          <value>2018-01-01T06:44:23.660000Z</value>
        </time>
        <waveformID networkCode="NV" stationCode="KEMO" locationCode=""></waveformID>
        <phaseHint>P</phaseHint>
      </pick>
      <pick publicID="smi:local/26d61746-9e45-496f-ab7b-50dd78c98b09">
        <time>
          <value>2018-01-01T06:44:25.300000Z</value>
        </time>
        <waveformID networkCode="NV" stationCode="KEMO" locationCode=""></waveformID>
        <phaseHint>S</phaseHint>
      </pick>
    </event>
    <event publicID="smi:local/bf7b2fbd-721a-49da-9693-e47aa7e88725">
      <origin publicID="smi:local/8a997eea-715f-47c5-8075-00b5d687b136">
        <time>
          <value>2018-01-01T07:18:30.605000Z</value>
        </time>
        <latitude/>
        <longitude/>
      </origin>
      <pick publicID="smi:local/23d83a80-56cc-4ed7-951c-facf7289d6b3">
        <time>
          <value>2018-01-01T07:18:30.960000Z</value>
        </time>
        <waveformID networkCode="NV" stationCode="ENWF" locationCode=""></waveformID>
        <phaseHint>P</phaseHint>
      </pick>
      <pick publicID="smi:local/13cfb1bf-6493-49c4-9b39-8fd577baf22b">
        <time>
          <value>2018-01-01T07:18:30.870000Z</value>
        </time>
        <waveformID networkCode="NV" stationCode="NCHR" locationCode=""></waveformID>
        <phaseHint>P</phaseHint>
      </pick>
    </event>
    <event publicID="smi:local/3a3ef8ef-1fa7-47d3-8f4c-07635c992f2b">
      <origin publicID="smi:local/c102c1f5-405a-49d9-945d-4aefd6c67927">
        <time>
          <value>2018-01-01T08:52:48.390000Z</value>
        </time>
        <latitude/>
        <longitude/>
      </origin>
      <pick publicID="smi:local/fbc43ae2-8cab-4552-a0a1-cef364a0091f">
        <time>
          <value>2018-01-01T08:52:48.020000Z</value>
        </time>
        <waveformID networkCode="NV" stationCode="NCHR" locationCode=""></waveformID>
        <phaseHint>P</phaseHint>
      </pick>
      <pick publicID="smi:local/8b83c58d-c4e0-427e-bd66-3118a6c1beef">
        <time>
          <value>2018-01-01T08:52:48.760000Z</value>
        </time>
        <waveformID networkCode="NV" stationCode="NCHR" locationCode=""></waveformID>
        <phaseHint>S</phaseHint>
      </pick>
    </event>
    <event publicID="smi:local/ebc706c6-5312-41a5-8484-3c836519c358">
      <origin publicID="smi:local/0fc23daa-61a2-4b4e-a197-4c2f09a522a9">
        <time>
          <value>2018-01-01T13:15:58.720000Z</value>
        </time>
        <latitude/>
        <longitude/>
      </origin>
      <pick publicID="smi:local/6a94ae13-3e24-4620-a2cc-277bdc988bf7">
        <time>
          <value>2018-01-01T13:15:58.430000Z</value>
        </time>
        <waveformID networkCode="NV" stationCode="NCHR" locationCode=""></waveformID>
        <phaseHint>P</phaseHint>
      </pick>
      <pick publicID="smi:local/345cf49c-5ae7-4dfc-acd6-f606ff6acbca">
        <time>
          <value>2018-01-01T13:15:59.010000Z</value>
        </time>
        <waveformID networkCode="NV" stationCode="NCHR" locationCode=""></waveformID>
        <phaseHint>S</phaseHint>
      </pick>
    </event>
    <event publicID="smi:local/6b79243f-d035-447b-a6af-d6888d3260f1">
      <origin publicID="smi:local/38160695-c5ce-42dc-a2b3-ec06e6d8af07">
        <time>
          <value>2018-01-02T00:35:28.800000Z</value>
        </time>
        <latitude/>
        <longitude/>
      </origin>
      <pick publicID="smi:local/ba54ac86-126a-4f51-98b8-1ccd4bfad07e">
        <time>
          <value>2018-01-02T00:35:28.180000Z</value>
        </time>
        <waveformID networkCode="NV" stationCode="NCHR" locationCode=""></waveformID>
        <phaseHint>P</phaseHint>
      </pick>
      <pick publicID="smi:local/80379774-1c25-464d-9ea4-70e94807ca64">
        <time>
          <value>2018-01-02T00:35:29.420000Z</value>
        </time>
        <waveformID networkCode="NV" stationCode="NCHR" locationCode=""></waveformID>
        <phaseHint>S</phaseHint>
      </pick>
    </event>
    <event publicID="smi:local/bca6e201-8f91-487c-895b-2bf670f93bc3">
      <origin publicID="smi:local/1b9b99a6-b3ff-44c5-92e7-cd207d6bcda5">
        <time>
          <value>2018-01-02T00:54:08.990000Z</value>
        </time>
        <latitude/>
        <longitude/>
      </origin>
      <pick publicID="smi:local/9ca1c7e5-0c35-445b-9222-8bd2b50bd7f1">
        <time>
          <value>2018-01-02T00:54:10.010000Z</value>
        </time>
        <waveformID networkCode="NV" stationCode="KEMO" locationCode=""></waveformID>
        <phaseHint>S</phaseHint>
      </pick>
      <pick publicID="smi:local/dd97d3e3-eee5-4d44-9dc7-fe97331ff6ca">
        <time>
          <value>2018-01-02T00:54:09.080000Z</value>
        </time>
        <waveformID networkCode="NV" stationCode="NCHR" locationCode=""></waveformID>
        <phaseHint>P</phaseHint>
      </pick>
      <pick publicID="smi:local/db42a3d5-a455-4da9-85be-e5210e55afb2">
        <time>
          <value>2018-01-02T00:54:10.170000Z</value>
        </time>
        <waveformID networkCode="NV" stationCode="NCHR" locationCode=""></waveformID>
        <phaseHint>S</phaseHint>
      </pick>
    </event>
    <event publicID="smi:local/9605644e-871f-4e31-9858-524f97aae9ee">
      <origin publicID="smi:local/3e7ccaec-1251-4a01-adae-5f62580e04e3">
        <time>
          <value>2018-01-02T01:04:22.886000Z</value>
        </time>
        <latitude/>
        <longitude/>
      </origin>
      <pick publicID="smi:local/12381ec6-3bbc-438f-9f99-3711dfb4a51a">
        <time>
          <value>2018-01-02T01:04:23.640000Z</value>
        </time>
        <waveformID networkCode="NV" stationCode="KEMO" locationCode=""></waveformID>
        <phaseHint>P</phaseHint>
      </pick>
      <pick publicID="smi:local/e3b110f7-45ae-4084-b55a-1a444bf4d1ca">
        <time>
          <value>2018-01-02T01:04:24.520000Z</value>
        </time>
        <waveformID networkCode="NV" stationCode="KEMO" locationCode=""></waveformID>
        <phaseHint>S</phaseHint>
      </pick>
      <pick publicID="smi:local/53e39f24-2e0e-450f-bd3b-f29f568c2011">
        <time>
          <value>2018-01-02T01:04:23.660000Z</value>
        </time>
        <waveformID networkCode="NV" stationCode="NCHR" locationCode=""></waveformID>
        <phaseHint>P</phaseHint>
      </pick>
      <pick publicID="smi:local/40f16168-78eb-4ea1-81c7-d11905bf96a9">
        <time>
          <value>2018-01-02T01:04:24.550000Z</value>
        </time>
        <waveformID networkCode="NV" stationCode="NCHR" locationCode=""></waveformID>
        <phaseHint>S</phaseHint>
      </pick>
    </event>
    <event publicID="smi:local/9257415f-8111-4d2b-8c9d-ccc4cf04b12d">
      <origin publicID="smi:local/9a29d833-d99e-4c00-8d6a-bae9aa7cf119">
        <time>
          <value>2018-01-02T04:00:14.550000Z</value>
        </time>
        <latitude/>
        <longitude/>
      </origin>
      <pick publicID="smi:local/641e6d40-1937-4746-9a39-ba36aa045bc9">
        <time>
          <value>2018-01-02T04:00:16.960000Z</value>
        </time>
        <waveformID networkCode="NV" stationCode="KEMF" locationCode=""></waveformID>
        <phaseHint>P</phaseHint>
      </pick>
      <pick publicID="smi:local/e721a67a-ee67-42b0-be0b-587244af15f1">
        <time>
          <value>2018-01-02T04:00:18.770000Z</value>
        </time>
        <waveformID networkCode="NV" stationCode="KEMF" locationCode=""></waveformID>
        <phaseHint>S</phaseHint>
      </pick>
      <pick publicID="smi:local/0ef58b4d-97f0-4511-9f78-4807d453ab3a">
        <time>
          <value>2018-01-02T04:00:16.490000Z</value>
        </time>
        <waveformID networkCode="NV" stationCode="NCHR" locationCode=""></waveformID>
        <phaseHint>P</phaseHint>
      </pick>
      <pick publicID="smi:local/84adb1c9-c757-411e-86ad-794a0bde4013">
        <time>
          <value>2018-01-02T04:00:18.040000Z</value>
        </time>
        <waveformID networkCode="NV" stationCode="NCHR" locationCode=""></waveformID>
        <phaseHint>S</phaseHint>
      </pick>
      <pick publicID="smi:local/dcee01b9-41dd-4d5a-b6dc-2411073f8887">
        <time>
          <value>2018-01-02T04:00:16.880000Z</value>
        </time>
        <waveformID networkCode="NV" stationCode="ENWF" locationCode=""></waveformID>
        <phaseHint>P</phaseHint>
      </pick>
      <pick publicID="smi:local/1dc0e660-3d88-4acf-a626-487fc312adcd">
        <time>
          <value>2018-01-02T04:00:18.530000Z</value>
        </time>
        <waveformID networkCode="NV" stationCode="ENWF" locationCode=""></waveformID>
        <phaseHint>S</phaseHint>
      </pick>
    </event>
    <event publicID="smi:local/5acf8405-bd25-4826-9a78-e98530dd27f3">
      <origin publicID="smi:local/052c2f21-d4f3-4014-a1f6-ba30be4cce84">
        <time>
          <value>2018-01-02T04:04:17.046000Z</value>
        </time>
        <latitude/>
        <longitude/>
      </origin>
      <pick publicID="smi:local/50795f98-ad8b-48b3-ab41-815db8120183">
        <time>
          <value>2018-01-02T04:04:18.980000Z</value>
        </time>
        <waveformID networkCode="NV" stationCode="NCHR" locationCode=""></waveformID>
        <phaseHint>P</phaseHint>
      </pick>
      <pick publicID="smi:local/e56a7784-087a-49fa-9976-a463378f0e4a">
        <time>
          <value>2018-01-02T04:04:20.430000Z</value>
        </time>
        <waveformID networkCode="NV" stationCode="NCHR" locationCode=""></waveformID>
        <phaseHint>S</phaseHint>
      </pick>
    </event>
    <event publicID="smi:local/9de45201-1da1-44b1-ba6d-7b6b6b20b901">
      <origin publicID="smi:local/97d805f6-636d-4824-a5d1-dc908f78a008">
        <time>
          <value>2018-01-02T04:06:18.753000Z</value>
        </time>
        <latitude/>
        <longitude/>
      </origin>
      <pick publicID="smi:local/ca3744c4-c00f-45f3-a9f7-38da68e3559a">
        <time>
          <value>2018-01-02T04:06:21.150000Z</value>
        </time>
        <waveformID networkCode="NV" stationCode="KEMF" locationCode=""></waveformID>
        <phaseHint>P</phaseHint>
      </pick>
      <pick publicID="smi:local/92a91ec9-809a-4d54-92fb-a9b224128722">
        <time>
          <value>2018-01-02T04:06:22.960000Z</value>
        </time>
        <waveformID networkCode="NV" stationCode="KEMF" locationCode=""></waveformID>
        <phaseHint>S</phaseHint>
      </pick>
      <pick publicID="smi:local/14bf1353-b977-4b46-840e-b265a92a5b3c">
        <time>
          <value>2018-01-02T04:06:20.690000Z</value>
        </time>
        <waveformID networkCode="NV" stationCode="NCHR" locationCode=""></waveformID>
        <phaseHint>P</phaseHint>
      </pick>
      <pick publicID="smi:local/b050593a-482e-48f4-81d9-8c52c5129779">
        <time>
          <value>2018-01-02T04:06:22.230000Z</value>
        </time>
        <waveformID networkCode="NV" stationCode="NCHR" locationCode=""></waveformID>
        <phaseHint>S</phaseHint>
      </pick>
      <pick publicID="smi:local/063848fe-1006-4129-9293-0a516273e060">
        <time>
          <value>2018-01-02T04:06:21.070000Z</value>
        </time>
        <waveformID networkCode="NV" stationCode="ENWF" locationCode=""></waveformID>
        <phaseHint>P</phaseHint>
      </pick>
      <pick publicID="smi:local/b27fef21-151b-4053-9fbe-6fbae9bcf873">
        <time>
          <value>2018-01-02T04:06:22.720000Z</value>
        </time>
        <waveformID networkCode="NV" stationCode="ENWF" locationCode=""></waveformID>
        <phaseHint>S</phaseHint>
      </pick>
    </event>
    <event publicID="smi:local/bb852e0d-7726-489f-9717-0367bb19a5cb">
      <origin publicID="smi:local/bab97593-3180-4157-96a9-9c7e6c801cbd">
        <time>
          <value>2018-01-02T04:10:09.004000Z</value>
        </time>
        <latitude/>
        <longitude/>
      </origin>
      <pick publicID="smi:local/97134d57-e17d-4bb7-a3ae-d7b69d063434">
        <time>
          <value>2018-01-02T04:10:08.220000Z</value>
        </time>
        <waveformID networkCode="NV" stationCode="NCHR" locationCode=""></waveformID>
        <phaseHint>P</phaseHint>
      </pick>
      <pick publicID="smi:local/038fc21c-4377-4872-9181-871d39c6ff33">
        <time>
          <value>2018-01-02T04:10:09.790000Z</value>
        </time>
        <waveformID networkCode="NV" stationCode="NCHR" locationCode=""></waveformID>
        <phaseHint>S</phaseHint>
      </pick>
    </event>
    <event publicID="smi:local/86e69ce9-44af-4b26-99db-1e8f540730e6">
      <origin publicID="smi:local/ba9e92d3-488a-4e9e-b34d-b9a4fbb73714">
        <time>
          <value>2018-01-02T04:13:49.768000Z</value>
        </time>
        <latitude/>
        <longitude/>
      </origin>
      <pick publicID="smi:local/21b31b42-7b3e-4530-a2d9-6da8c477e7bf">
        <time>
          <value>2018-01-02T04:13:50.020000Z</value>
        </time>
        <waveformID networkCode="NV" stationCode="NCHR" locationCode=""></waveformID>
        <phaseHint>S</phaseHint>
      </pick>
      <pick publicID="smi:local/405b3ce9-ef57-470d-ad46-486751e2936d">
        <time>
          <value>2018-01-02T04:13:50.600000Z</value>
        </time>
        <waveformID networkCode="NV" stationCode="ENWF" locationCode=""></waveformID>
        <phaseHint>S</phaseHint>
      </pick>
    </event>
    <event publicID="smi:local/471be87e-6df9-4ae4-b436-6f1bc83c02bc">
      <origin publicID="smi:local/df0ce12b-3880-4ddd-90f4-77c2e329cb4d">
        <time>
          <value>2018-01-02T09:23:18.785000Z</value>
        </time>
        <latitude/>
        <longitude/>
      </origin>
      <pick publicID="smi:local/8e37a35d-70ca-4884-98e3-50e6e09d16b3">
        <time>
          <value>2018-01-02T09:23:25.700000Z</value>
        </time>
        <waveformID networkCode="NV" stationCode="KEMF" locationCode=""></waveformID>
        <phaseHint>P</phaseHint>
      </pick>
      <pick publicID="smi:local/a3cf4e72-1669-4e8b-850c-60473567cc13">
        <time>
          <value>2018-01-02T09:23:30.920000Z</value>
        </time>
        <waveformID networkCode="NV" stationCode="KEMF" locationCode=""></waveformID>
        <phaseHint>S</phaseHint>
      </pick>
      <pick publicID="smi:local/4ed06ed9-b396-4b89-8e3f-c37532e04310">
        <time>
          <value>2018-01-02T09:23:25.340000Z</value>
        </time>
        <waveformID networkCode="NV" stationCode="KEMO" locationCode=""></waveformID>
        <phaseHint>P</phaseHint>
      </pick>
      <pick publicID="smi:local/d251c9a8-1c7a-492e-ace9-82a7f0b76bae">
        <time>
          <value>2018-01-02T09:23:30.250000Z</value>
        </time>
        <waveformID networkCode="NV" stationCode="KEMO" locationCode=""></waveformID>
        <phaseHint>S</phaseHint>
      </pick>
      <pick publicID="smi:local/12f48b0d-5175-4562-80a2-35ece1468706">
        <time>
          <value>2018-01-02T09:23:26.270000Z</value>
        </time>
        <waveformID networkCode="NV" stationCode="NCHR" locationCode=""></waveformID>
        <phaseHint>P</phaseHint>
      </pick>
      <pick publicID="smi:local/4ae16fe9-58fa-4f1e-8a22-a708bcdeabb5">
        <time>
          <value>2018-01-02T09:23:31.740000Z</value>
        </time>
        <waveformID networkCode="NV" stationCode="NCHR" locationCode=""></waveformID>
        <phaseHint>S</phaseHint>
      </pick>
      <pick publicID="smi:local/4eb486bb-16aa-49e1-b88d-5b2e578b7b13">
        <time>
          <value>2018-01-02T09:23:25.940000Z</value>
        </time>
        <waveformID networkCode="NV" stationCode="ENWF" locationCode=""></waveformID>
        <phaseHint>P</phaseHint>
      </pick>
      <pick publicID="smi:local/e28db1f8-887c-4718-b8d9-15796c23fabf">
        <time>
          <value>2018-01-02T09:23:31.420000Z</value>
        </time>
        <waveformID networkCode="NV" stationCode="ENWF" locationCode=""></waveformID>
        <phaseHint>S</phaseHint>
      </pick>
    </event>
    <event publicID="smi:local/9ba0b233-2b88-4e00-b66a-74a4294f22ec">
      <origin publicID="smi:local/7fe39e5f-fbc2-4d7f-9b45-280bdba4d649">
        <time>
          <value>2018-01-02T09:24:22.612000Z</value>
        </time>
        <latitude/>
        <longitude/>
      </origin>
      <pick publicID="smi:local/d4f6bad2-b1d8-4763-8f07-72675550467f">
        <time>
          <value>2018-01-02T09:24:34.470000Z</value>
        </time>
        <waveformID networkCode="NV" stationCode="KEMF" locationCode=""></waveformID>
        <phaseHint>S</phaseHint>
      </pick>
      <pick publicID="smi:local/86acc8d8-dbc7-4f60-ad1e-eee8ee213763">
        <time>
          <value>2018-01-02T09:24:28.930000Z</value>
        </time>
        <waveformID networkCode="NV" stationCode="KEMO" locationCode=""></waveformID>
        <phaseHint>P</phaseHint>
      </pick>
      <pick publicID="smi:local/ce96a6a6-95ba-49b6-9564-ac811c8a167a">
        <time>
          <value>2018-01-02T09:24:33.810000Z</value>
        </time>
        <waveformID networkCode="NV" stationCode="KEMO" locationCode=""></waveformID>
        <phaseHint>S</phaseHint>
      </pick>
      <pick publicID="smi:local/adf70a89-cdcb-45bb-b0e6-76699d6d3cd6">
        <time>
          <value>2018-01-02T09:24:30.000000Z</value>
        </time>
        <waveformID networkCode="NV" stationCode="NCHR" locationCode=""></waveformID>
        <phaseHint>P</phaseHint>
      </pick>
      <pick publicID="smi:local/1c515827-11cc-4337-843a-f26ddd07018b">
        <time>
          <value>2018-01-02T09:24:35.300000Z</value>
        </time>
        <waveformID networkCode="NV" stationCode="NCHR" locationCode=""></waveformID>
        <phaseHint>S</phaseHint>
      </pick>
      <pick publicID="smi:local/aed6406e-5d7e-4cd9-aeb7-5a23552c6160">
        <time>
          <value>2018-01-02T09:24:29.580000Z</value>
        </time>
        <waveformID networkCode="NV" stationCode="ENWF" locationCode=""></waveformID>
        <phaseHint>P</phaseHint>
      </pick>
      <pick publicID="smi:local/f154049b-c1d4-4003-94e1-a5ebe0874a0f">
        <time>
          <value>2018-01-02T09:24:34.960000Z</value>
        </time>
        <waveformID networkCode="NV" stationCode="ENWF" locationCode=""></waveformID>
        <phaseHint>S</phaseHint>
      </pick>
    </event>
    <event publicID="smi:local/db26843c-d9b0-4374-9418-53fd6f8b0c4f">
      <origin publicID="smi:local/a541ece3-6349-46ed-9583-7ab06656e765">
        <time>
          <value>2018-01-02T10:32:34.350000Z</value>
        </time>
        <latitude/>
        <longitude/>
      </origin>
      <pick publicID="smi:local/2dc6833a-dbc1-49f7-aab3-9171cd7116c3">
        <time>
          <value>2018-01-02T10:32:34.030000Z</value>
        </time>
        <waveformID networkCode="NV" stationCode="NCHR" locationCode=""></waveformID>
        <phaseHint>P</phaseHint>
      </pick>
      <pick publicID="smi:local/bd838265-fd2a-47a0-a47f-b1dc9a2faeae">
        <time>
          <value>2018-01-02T10:32:34.670000Z</value>
        </time>
        <waveformID networkCode="NV" stationCode="NCHR" locationCode=""></waveformID>
        <phaseHint>S</phaseHint>
      </pick>
    </event>
    <event publicID="smi:local/3ac5472c-cb88-4f25-b769-6b6f5ba38bda">
      <origin publicID="smi:local/5a58749b-d7c5-45c0-9747-f0ed35afa0d5">
        <time>
          <value>2018-01-02T11:27:46.455000Z</value>
        </time>
        <latitude/>
        <longitude/>
      </origin>
