<?xml version='1.0' encoding='utf-8'?>
<q:quakeml xmlns="http://quakeml.org/xmlns/bed/1.2" xmlns:q="http://quakeml.org/xmlns/quakeml/1.2">
  <eventParameters publicID="smi:local/23862d8e-17b1-4b3a-a114-190407f03635">
    <event publicID="smi:local/ac023f52-4c63-4678-9864-390dfa6d1477">
      <origin publicID="smi:local/d8dd02b0-4b9c-40c9-8303-ea0761874264">
        <time>
          <value>2016-09-24T04:06:44.280000Z</value>
        </time>
        <latitude/>
        <longitude/>
      </origin>
      <pick publicID="smi:local/d5d8576f-d280-4a98-a19b-25a778ec6c08">
        <time>
          <value>2016-09-24T04:06:43.970000Z</value>
        </time>
        <waveformID networkCode="NV" stationCode="NCHR" locationCode=""></waveformID>
        <phaseHint>P</phaseHint>
      </pick>
      <pick publicID="smi:local/54b6d5ea-91aa-4065-b4fe-c11fc36dc33f">
        <time>
          <value>2016-09-24T04:06:44.590000Z</value>
        </time>
        <waveformID networkCode="NV" stationCode="NCHR" locationCode=""></waveformID>
        <phaseHint>S</phaseHint>
      </pick>
    </event>
    <event publicID="smi:local/36236bb2-83db-4db8-b9ae-160ad9e0a221">
      <origin publicID="smi:local/36743553-21c7-4525-bbfd-af2092f64777">
        <time>
          <value>2016-09-24T08:42:46.890000Z</value>
        </time>
        <latitude/>
        <longitude/>
      </origin>
      <pick publicID="smi:local/3f5f00f7-5e73-42bf-8f23-31bf2ee2510f">
        <time>
          <value>2016-09-24T08:42:46.080000Z</value>
        </time>
        <waveformID networkCode="NV" stationCode="NCHR" locationCode=""></waveformID>
        <phaseHint>P</phaseHint>
      </pick>
      <pick publicID="smi:local/f1351c0c-46db-4a3c-a5c0-480bd1e92c8b">
        <time>
          <value>2016-09-24T08:42:47.700000Z</value>
        </time>
        <waveformID networkCode="NV" stationCode="NCHR" locationCode=""></waveformID>
        <phaseHint>S</phaseHint>
      </pick>
    </event>
    <event publicID="smi:local/ec756e00-d798-46b8-9edb-e0c8174a0b66">
      <origin publicID="smi:local/45c1c565-5cbc-4226-a44d-e833b43da077">
        <time>
          <value>2016-09-24T08:55:51.111000Z</value>
        </time>
        <latitude/>
        <longitude/>
      </origin>
      <pick publicID="smi:local/a3e202ad-767a-4d8a-a124-d594b7f13929">
        <time>
          <value>2016-09-24T08:55:51.530000Z</value>
        </time>
        <waveformID networkCode="NV" stationCode="KEMO" locationCode=""></waveformID>
        <phaseHint>S</phaseHint>
      </pick>
      <pick publicID="smi:local/7698b15d-9b9c-43ca-936b-d3dfe79cb8c6">
        <time>
          <value>2016-09-24T08:55:52.490000Z</value>
        </time>
        <waveformID networkCode="NV" stationCode="NCHR" locationCode=""></waveformID>
        <phaseHint>S</phaseHint>
      </pick>
    </event>
    <event publicID="smi:local/c56c5885-4c47-49b7-a3d5-53b36ee4d548">
      <origin publicID="smi:local/9027f5fc-710d-4802-bbca-b85c535fe463">
        <time>
          <value>2016-09-24T16:48:08.808000Z</value>
        </time>
        <latitude/>
        <longitude/>
      </origin>
      <pick publicID="smi:local/f15ed0ab-1067-404f-88b2-fb657cb2d5ec">
        <time>
          <value>2016-09-24T16:48:14.920000Z</value>
        </time>
        <waveformID networkCode="NV" stationCode="KEMF" locationCode=""></waveformID>
        <phaseHint>P</phaseHint>
      </pick>
      <pick publicID="smi:local/6f43011c-2001-43be-84fb-ba0759cd8fa5">
        <time>
          <value>2016-09-24T16:48:19.430000Z</value>
        </time>
        <waveformID networkCode="NV" stationCode="KEMF" locationCode=""></waveformID>
        <phaseHint>S</phaseHint>
      </pick>
      <pick publicID="smi:local/43fa50d4-b139-4eaa-a683-dac07ebf7aa1">
        <time>
          <value>2016-09-24T16:48:14.880000Z</value>
        </time>
        <waveformID networkCode="NV" stationCode="KEMO" locationCode=""></waveformID>
        <phaseHint>P</phaseHint>
      </pick>
      <pick publicID="smi:local/ab79e32e-b529-4fc8-b4fd-62c1bdb8e758">
        <time>
          <value>2016-09-24T16:48:19.440000Z</value>
        </time>
        <waveformID networkCode="NV" stationCode="KEMO" locationCode=""></waveformID>
        <phaseHint>S</phaseHint>
      </pick>
      <pick publicID="smi:local/bc15ea57-4f56-4d64-b6a3-fe2ba3d0a193">
        <time>
          <value>2016-09-24T16:48:14.920000Z</value>
        </time>
        <waveformID networkCode="NV" stationCode="NCHR" locationCode=""></waveformID>
        <phaseHint>P</phaseHint>
      </pick>
      <pick publicID="smi:local/f9865a30-2eb1-48f0-9fd1-03032b902cf2">
        <time>
          <value>2016-09-24T16:48:19.570000Z</value>
        </time>
        <waveformID networkCode="NV" stationCode="NCHR" locationCode=""></waveformID>
        <phaseHint>S</phaseHint>
      </pick>
    </event>
    <event publicID="smi:local/8e651f6f-63ea-4479-abd5-b1a48efde4ed">
      <origin publicID="smi:local/959f5d2b-5109-4ac3-a975-1a098c300116">
        <time>
          <value>2016-09-24T20:49:05.790000Z</value>
        </time>
        <latitude/>
        <longitude/>
      </origin>
      <pick publicID="smi:local/e9c583f7-c866-47ba-bb5a-9efc1bf32778">
        <time>
          <value>2016-09-24T20:49:04.820000Z</value>
        </time>
        <waveformID networkCode="NV" stationCode="KEMO" locationCode=""></waveformID>
        <phaseHint>P</phaseHint>
      </pick>
      <pick publicID="smi:local/22f1dfa8-26a8-48bf-88b3-82b4d3aae04d">
        <time>
          <value>2016-09-24T20:49:06.760000Z</value>
        </time>
        <waveformID networkCode="NV" stationCode="KEMO" locationCode=""></waveformID>
        <phaseHint>S</phaseHint>
      </pick>
    </event>
    <event publicID="smi:local/81720b81-63d0-439e-992d-1cb852270054">
      <origin publicID="smi:local/3f6cbf5a-f310-4d05-a486-8102a3ab2aa4">
        <time>
          <value>2016-09-13T22:54:20.215000Z</value>
        </time>
        <latitude/>
        <longitude/>
      </origin>
      <pick publicID="smi:local/4660b34f-2b4a-4ab2-b15a-cb954e871a10">
        <time>
          <value>2016-09-13T22:54:19.380000Z</value>
        </time>
        <waveformID networkCode="NV" stationCode="KEMO" locationCode=""></waveformID>
        <phaseHint>P</phaseHint>
      </pick>
      <pick publicID="smi:local/c4fbf113-8f16-477b-b13c-c0fe3d11b734">
        <time>
          <value>2016-09-13T22:54:21.050000Z</value>
        </time>
        <waveformID networkCode="NV" stationCode="KEMO" locationCode=""></waveformID>
        <phaseHint>S</phaseHint>
      </pick>
    </event>
    <event publicID="smi:local/7f956af2-252b-47de-9bfb-d2ef1dcaae60">
      <origin publicID="smi:local/9d5b04ba-4e20-439a-a725-28d6c7873e92">
        <time>
          <value>2016-09-19T05:21:52.639000Z</value>
        </time>
        <latitude/>
        <longitude/>
      </origin>
      <pick publicID="smi:local/f73adcda-296c-42e7-b7dc-6747a3bb8e3e">
        <time>
          <value>2016-09-19T05:21:56.510000Z</value>
        </time>
        <waveformID networkCode="NV" stationCode="KEMO" locationCode=""></waveformID>
        <phaseHint>P</phaseHint>
      </pick>
      <pick publicID="smi:local/22c5cc68-5f31-42fd-9efc-3f18ab171b47">
        <time>
          <value>2016-09-19T05:22:01.160000Z</value>
        </time>
        <waveformID networkCode="NV" stationCode="KEMO" locationCode=""></waveformID>
        <phaseHint>S</phaseHint>
      </pick>
      <pick publicID="smi:local/3cbd25d1-e41b-45d0-8b40-756815deedb1">
        <time>
          <value>2016-09-19T05:21:57.480000Z</value>
        </time>
        <waveformID networkCode="NV" stationCode="NCHR" locationCode=""></waveformID>
        <phaseHint>P</phaseHint>
      </pick>
    </event>
    <event publicID="smi:local/41c045f4-e30b-40ad-8752-5362b5fd3d02">
      <origin publicID="smi:local/bf4e9926-2741-4dba-adf6-d594f0262228">
        <time>
          <value>2016-09-19T06:06:51.810000Z</value>
        </time>
        <latitude/>
        <longitude/>
      </origin>
      <pick publicID="smi:local/352801e9-1b75-4913-aa48-8b8f9dd62d67">
        <time>
          <value>2016-09-19T06:06:51.330000Z</value>
        </time>
        <waveformID networkCode="NV" stationCode="NCHR" locationCode=""></waveformID>
        <phaseHint>P</phaseHint>
      </pick>
      <pick publicID="smi:local/c2cd099d-ecb8-4771-929c-d2e933622f43">
        <time>
          <value>2016-09-19T06:06:52.290000Z</value>
        </time>
        <waveformID networkCode="NV" stationCode="NCHR" locationCode=""></waveformID>
        <phaseHint>S</phaseHint>
      </pick>
    </event>
    <event publicID="smi:local/3bcc5557-dd34-46a6-81af-056e6b71120d">
      <origin publicID="smi:local/469e1ebc-832f-4261-a91d-2054787c4089">
        <time>
          <value>2016-09-19T13:14:28.745000Z</value>
        </time>
        <latitude/>
        <longitude/>
      </origin>
      <pick publicID="smi:local/061264bc-7b21-41e8-afea-0be7b8225efc">
        <time>
          <value>2016-09-19T13:14:28.290000Z</value>
        </time>
        <waveformID networkCode="NV" stationCode="KEMO" locationCode=""></waveformID>
        <phaseHint>P</phaseHint>
      </pick>
      <pick publicID="smi:local/72c03628-0aaa-433a-81b1-c65979df97c1">
        <time>
          <value>2016-09-19T13:14:29.200000Z</value>
        </time>
        <waveformID networkCode="NV" stationCode="KEMO" locationCode=""></waveformID>
        <phaseHint>S</phaseHint>
      </pick>
    </event>
    <event publicID="smi:local/d0d8d633-a4f6-498f-9a4b-90f2cd39446c">
      <origin publicID="smi:local/cf1fdf83-a186-4bf9-9155-766d60bc3fb0">
        <time>
          <value>2016-09-19T13:27:43.650000Z</value>
        </time>
        <latitude/>
        <longitude/>
      </origin>
      <pick publicID="smi:local/4e301d52-fe85-4d00-942f-049b208d11f7">
        <time>
          <value>2016-09-19T13:27:43.240000Z</value>
        </time>
        <waveformID networkCode="NV" stationCode="KEMO" locationCode=""></waveformID>
        <phaseHint>P</phaseHint>
      </pick>
      <pick publicID="smi:local/a8d9bb1f-33d1-4e38-a017-1462d5603ae2">
        <time>
          <value>2016-09-19T13:27:44.060000Z</value>
        </time>
        <waveformID networkCode="NV" stationCode="KEMO" locationCode=""></waveformID>
        <phaseHint>S</phaseHint>
      </pick>
    </event>
    <event publicID="smi:local/6efb27f2-9d64-4bf1-8a0f-e8cc176331e3">
      <origin publicID="smi:local/fb40e0cc-f5b1-4e6d-8439-a04de21e1b5f">
        <time>
          <value>2016-09-19T13:28:02.964000Z</value>
        </time>
        <latitude/>
        <longitude/>
      </origin>
      <pick publicID="smi:local/21604164-ebb9-4afb-a3b2-005e9ad8ff54">
        <time>
          <value>2016-09-19T13:28:02.590000Z</value>
        </time>
        <waveformID networkCode="NV" stationCode="KEMO" locationCode=""></waveformID>
        <phaseHint>P</phaseHint>
      </pick>
      <pick publicID="smi:local/9512bfd2-0ae1-4387-8a08-adc7bde3c15e">
        <time>
          <value>2016-09-19T13:28:03.340000Z</value>
        </time>
        <waveformID networkCode="NV" stationCode="KEMO" locationCode=""></waveformID>
        <phaseHint>S</phaseHint>
      </pick>
    </event>
    <event publicID="smi:local/f49394e1-aa8c-474c-b257-636b8a865d2d">
      <origin publicID="smi:local/7627335b-8079-4acd-993f-f0382fd0ce98">
        <time>
          <value>2016-09-19T18:39:34.196000Z</value>
        </time>
        <latitude/>
        <longitude/>
      </origin>
      <pick publicID="smi:local/661fdd20-bb16-409d-adf6-7cfd15792704">
        <time>
          <value>2016-09-19T18:39:41.270000Z</value>
        </time>
        <waveformID networkCode="NV" stationCode="KEMF" locationCode=""></waveformID>
        <phaseHint>P</phaseHint>
      </pick>
      <pick publicID="smi:local/6288dc36-7b11-4524-825b-b868cee22fa8">
        <time>
          <value>2016-09-19T18:39:46.580000Z</value>
        </time>
        <waveformID networkCode="NV" stationCode="KEMF" locationCode=""></waveformID>
        <phaseHint>S</phaseHint>
      </pick>
      <pick publicID="smi:local/55288d40-65f6-44eb-a72f-2902d969cd64">
        <time>
          <value>2016-09-19T18:39:41.590000Z</value>
        </time>
        <waveformID networkCode="NV" stationCode="KEMO" locationCode=""></waveformID>
        <phaseHint>P</phaseHint>
      </pick>
      <pick publicID="smi:local/fb620688-a492-4558-bcbf-f2a12e5b9396">
        <time>
          <value>2016-09-19T18:39:47.370000Z</value>
        </time>
        <waveformID networkCode="NV" stationCode="KEMO" locationCode=""></waveformID>
        <phaseHint>S</phaseHint>
      </pick>
      <pick publicID="smi:local/741637dd-46b8-405b-b1ea-37201bcca46a">
        <time>
          <value>2016-09-19T18:39:40.750000Z</value>
        </time>
        <waveformID networkCode="NV" stationCode="NCHR" locationCode=""></waveformID>
        <phaseHint>P</phaseHint>
      </pick>
      <pick publicID="smi:local/b6462188-c9d3-41ed-9dcf-7b5114a42608">
        <time>
          <value>2016-09-19T18:39:45.430000Z</value>
        </time>
        <waveformID networkCode="NV" stationCode="NCHR" locationCode=""></waveformID>
        <phaseHint>S</phaseHint>
      </pick>
    </event>
    <event publicID="smi:local/90b4f9b5-538d-4d79-aa35-fc7659eff656">
      <origin publicID="smi:local/6a1820af-3706-47cf-ac88-a40a6e8ccb2f">
        <time>
          <value>2016-09-07T07:09:04.960000Z</value>
        </time>
        <latitude/>
        <longitude/>
      </origin>
      <pick publicID="smi:local/bbe38caf-e3bc-446f-8e3d-cdc8ebb33653">
        <time>
          <value>2016-09-07T07:09:04.660000Z</value>
        </time>
        <waveformID networkCode="NV" stationCode="NCHR" locationCode=""></waveformID>
        <phaseHint>P</phaseHint>
      </pick>
      <pick publicID="smi:local/f9973fc1-9518-4996-b717-262e06b41bc4">
        <time>
          <value>2016-09-07T07:09:05.260000Z</value>
        </time>
        <waveformID networkCode="NV" stationCode="NCHR" locationCode=""></waveformID>
        <phaseHint>S</phaseHint>
      </pick>
    </event>
    <event publicID="smi:local/11d07111-e62f-44b2-ac26-4e66210b4a3c">
      <origin publicID="smi:local/f41ae1ae-c82b-4ff4-a642-a6bdff2cec7f">
        <time>
          <value>2016-09-07T07:30:47.955000Z</value>
        </time>
        <latitude/>
        <longitude/>
      </origin>
      <pick publicID="smi:local/283873cd-a6fc-4fd6-901e-c84b18d3450d">
        <time>
          <value>2016-09-07T07:30:47.690000Z</value>
        </time>
        <waveformID networkCode="NV" stationCode="NCHR" locationCode=""></waveformID>
        <phaseHint>P</phaseHint>
      </pick>
      <pick publicID="smi:local/12df54e8-0317-42f9-a734-68771a4ecb67">
        <time>
          <value>2016-09-07T07:30:48.220000Z</value>
        </time>
        <waveformID networkCode="NV" stationCode="NCHR" locationCode=""></waveformID>
        <phaseHint>S</phaseHint>
      </pick>
    </event>
    <event publicID="smi:local/1cb71c73-43af-4ee6-96fc-0f4aec323b75">
      <origin publicID="smi:local/7c88ec1f-8364-41d2-8515-89cdda9a7628">
        <time>
          <value>2016-09-07T09:26:11.440000Z</value>
        </time>
        <latitude/>
        <longitude/>
      </origin>
      <pick publicID="smi:local/1d3a9229-55ba-468f-a37a-d649b03d16ed">
        <time>
          <value>2016-09-07T09:26:10.780000Z</value>
        </time>
        <waveformID networkCode="NV" stationCode="NCHR" locationCode=""></waveformID>
        <phaseHint>P</phaseHint>
      </pick>
      <pick publicID="smi:local/32e4a595-a6f1-4f90-9cb8-7e2c591a4d89">
        <time>
          <value>2016-09-07T09:26:12.100000Z</value>
        </time>
        <waveformID networkCode="NV" stationCode="NCHR" locationCode=""></waveformID>
        <phaseHint>S</phaseHint>
      </pick>
    </event>
    <event publicID="smi:local/28e82258-ff23-4a44-968f-8a2c2ac2cb60">
      <origin publicID="smi:local/24f37c70-6e77-4933-a8da-4a9a97da3771">
        <time>
          <value>2016-09-07T09:57:31.635000Z</value>
        </time>
        <latitude/>
        <longitude/>
      </origin>
      <pick publicID="smi:local/6fca7681-6cbf-47c7-abc0-4d72ccdec55d">
        <time>
          <value>2016-09-07T09:57:31.130000Z</value>
        </time>
        <waveformID networkCode="NV" stationCode="NCHR" locationCode=""></waveformID>
        <phaseHint>P</phaseHint>
      </pick>
      <pick publicID="smi:local/f00456a6-88de-4498-bc51-3e224e4fa50b">
        <time>
          <value>2016-09-07T09:57:32.140000Z</value>
        </time>
        <waveformID networkCode="NV" stationCode="NCHR" locationCode=""></waveformID>
        <phaseHint>S</phaseHint>
      </pick>
    </event>
    <event publicID="smi:local/4dc15248-ddbc-42e1-8e80-3342ee62d108">
      <origin publicID="smi:local/a88a565d-8958-4b1d-8adf-42c26b34daa3">
        <time>
          <value>2016-09-28T02:36:28.120000Z</value>
        </time>
        <latitude/>
        <longitude/>
      </origin>
      <pick publicID="smi:local/ca26ee39-7d4e-4b86-92ed-acc73caf5fc7">
        <time>
          <value>2016-09-28T02:36:27.470000Z</value>
        </time>
        <waveformID networkCode="NV" stationCode="NCHR" locationCode=""></waveformID>
        <phaseHint>P</phaseHint>
      </pick>
      <pick publicID="smi:local/c09a3aac-f234-4dc6-8662-75820cda8146">
        <time>
          <value>2016-09-28T02:36:28.770000Z</value>
        </time>
        <waveformID networkCode="NV" stationCode="NCHR" locationCode=""></waveformID>
        <phaseHint>S</phaseHint>
      </pick>
    </event>
    <event publicID="smi:local/9f725e5c-b3de-44ea-a6f2-6a243110ad0d">
      <origin publicID="smi:local/432f77b2-7014-4ba6-8756-f355a63ca34b">
        <time>
          <value>2016-09-28T07:22:00.425000Z</value>
        </time>
        <latitude/>
        <longitude/>
      </origin>
      <pick publicID="smi:local/ffa163e7-fcb6-4403-8dcd-d95346cf4e48">
        <time>
          <value>2016-09-28T07:21:59.820000Z</value>
        </time>
        <waveformID networkCode="NV" stationCode="NCHR" locationCode=""></waveformID>
        <phaseHint>P</phaseHint>
      </pick>
      <pick publicID="smi:local/cc040a18-c50a-4916-9837-8c3261e1745f">
        <time>
          <value>2016-09-28T07:22:01.030000Z</value>
        </time>
        <waveformID networkCode="NV" stationCode="NCHR" locationCode=""></waveformID>
        <phaseHint>S</phaseHint>
      </pick>
    </event>
    <event publicID="smi:local/bed0394e-8ad4-460f-ba82-f97ecb781579">
      <origin publicID="smi:local/6427b2f7-e4dc-46e3-b887-b1ec0edd7a5f">
        <time>
          <value>2016-09-28T09:46:27.135000Z</value>
        </time>
        <latitude/>
        <longitude/>
      </origin>
      <pick publicID="smi:local/3c7cd016-fe6c-4f1c-bb30-f34292e444ba">
        <time>
          <value>2016-09-28T09:46:26.580000Z</value>
        </time>
        <waveformID networkCode="NV" stationCode="NCHR" locationCode=""></waveformID>
        <phaseHint>P</phaseHint>
      </pick>
      <pick publicID="smi:local/dcc83af0-c91b-4886-855a-8be49104fc06">
        <time>
          <value>2016-09-28T09:46:27.690000Z</value>
        </time>
        <waveformID networkCode="NV" stationCode="NCHR" locationCode=""></waveformID>
        <phaseHint>S</phaseHint>
      </pick>
    </event>
    <event publicID="smi:local/a8157616-c5b2-4544-aa7a-815bfe14ede2">
      <origin publicID="smi:local/e73a9544-870c-4acd-9dd3-ea34f802044f">
        <time>
          <value>2016-09-28T10:44:53.007000Z</value>
        </time>
        <latitude/>
        <longitude/>
      </origin>
      <pick publicID="smi:local/fc925b4b-4ab9-42bf-8439-94a952a28929">
        <time>
          <value>2016-09-28T10:44:54.970000Z</value>
        </time>
        <waveformID networkCode="NV" stationCode="KEMO" locationCode=""></waveformID>
        <phaseHint>S</phaseHint>
      </pick>
    </event>
