<?xml version='1.0' encoding='utf-8'?>
<q:quakeml xmlns="http://quakeml.org/xmlns/bed/1.2" xmlns:q="http://quakeml.org/xmlns/quakeml/1.2">
  <eventParameters publicID="smi:local/08c1711d-04f7-40a6-aaec-f46449eea2d7">
    <event publicID="smi:local/515146_20170610T000659.245000">
      <comment id="smi:local/8ae16cd0-d639-4c69-bf96-26b0c7084750">
        <text>Template: 515146</text>
      </comment>
      <comment id="smi:local/eebb8493-3d9e-4320-ad81-6a87ec12b47c">
        <text>threshold=2.4000000953674316</text>
      </comment>
      <comment id="smi:local/3a074595-64e5-44ca-a5da-37d761fa5986">
        <text>detect_val=2.5536580085754395</text>
      </comment>
      <comment id="smi:local/4ff8024c-8be6-4787-820a-3c0cbba73a0b">
        <text>channels used: ('ENWF', 'HHE') ('ENWF', 'HHZ') ('KEMF', 'EHE') ('KEMF', 'EHZ') ('NCHR', 'EHE') ('NCHR', 'EHZ')</text>
      </comment>
      <creationInfo>
        <author>EQcorrscan</author>
        <creationTime>2022-10-17T19:54:04.671098Z</creationTime>
      </creationInfo>
      <pick publicID="smi:local/ae78d0b1-5cb6-4830-903e-98974b4cee71">
        <time>
          <value>2017-06-10T00:07:01.150000Z</value>
        </time>
        <waveformID networkCode="NV" stationCode="ENWF" locationCode="" channelCode="HHE"></waveformID>
      </pick>
      <pick publicID="smi:local/1ba35c99-ea6b-4917-8434-a9302982cae5">
        <time>
          <value>2017-06-10T00:06:59.660000Z</value>
        </time>
        <waveformID networkCode="NV" stationCode="ENWF" locationCode="" channelCode="HHZ"></waveformID>
      </pick>
      <pick publicID="smi:local/e5d6fedc-7a53-4a5e-8eec-e2df7257e6d8">
        <time>
          <value>2017-06-10T00:07:01.180000Z</value>
        </time>
        <waveformID networkCode="NV" stationCode="KEMF" locationCode="" channelCode="EHE"></waveformID>
      </pick>
      <pick publicID="smi:local/42791ba0-beae-46c2-8a59-95ef4b533236">
        <time>
          <value>2017-06-10T00:06:59.755000Z</value>
        </time>
        <waveformID networkCode="NV" stationCode="KEMF" locationCode="" channelCode="EHZ"></waveformID>
      </pick>
      <pick publicID="smi:local/8675587a-88fa-4f6a-9912-1125eae4b79e">
        <time>
          <value>2017-06-10T00:07:00.525000Z</value>
        </time>
        <waveformID networkCode="NV" stationCode="NCHR" locationCode="" channelCode="EHE"></waveformID>
      </pick>
      <pick publicID="smi:local/21183ba8-ebd5-4f46-83a0-f71704611975">
        <time>
          <value>2017-06-10T00:06:59.295000Z</value>
        </time>
        <waveformID networkCode="NV" stationCode="NCHR" locationCode="" channelCode="EHZ"></waveformID>
      </pick>
    </event>
    <event publicID="smi:local/515146_20170610T003817.960000">
      <comment id="smi:local/3a6d25a0-a38d-44b9-9a8f-9c9ea53dcb8d">
        <text>Template: 515146</text>
      </comment>
      <comment id="smi:local/f0357745-97e8-4eaf-86da-65d9dc5cb977">
        <text>threshold=2.4000000953674316</text>
      </comment>
      <comment id="smi:local/6afdbd63-0fec-414c-95c2-b9de45d43c15">
        <text>detect_val=2.552781581878662</text>
      </comment>
      <comment id="smi:local/a98f6281-4175-40b8-a43c-ca88eb3f0718">
        <text>channels used: ('ENWF', 'HHE') ('ENWF', 'HHZ') ('KEMF', 'EHE') ('KEMF', 'EHZ') ('NCHR', 'EHE') ('NCHR', 'EHZ')</text>
      </comment>
      <creationInfo>
        <author>EQcorrscan</author>
        <creationTime>2022-10-17T19:54:04.672316Z</creationTime>
      </creationInfo>
      <pick publicID="smi:local/8bf6ff1f-8271-411e-bf09-626f4070ccd0">
        <time>
          <value>2017-06-10T00:38:19.865000Z</value>
        </time>
        <waveformID networkCode="NV" stationCode="ENWF" locationCode="" channelCode="HHE"></waveformID>
      </pick>
      <pick publicID="smi:local/a3dcf13e-6369-40fe-bf2d-a14b369b875d">
        <time>
          <value>2017-06-10T00:38:18.375000Z</value>
        </time>
        <waveformID networkCode="NV" stationCode="ENWF" locationCode="" channelCode="HHZ"></waveformID>
      </pick>
      <pick publicID="smi:local/dcd0d073-c42f-4b46-8f99-7b9ea066e0d5">
        <time>
          <value>2017-06-10T00:38:19.895000Z</value>
        </time>
        <waveformID networkCode="NV" stationCode="KEMF" locationCode="" channelCode="EHE"></waveformID>
      </pick>
      <pick publicID="smi:local/e11cc807-89fa-43fa-b752-2aa4b03e3249">
        <time>
          <value>2017-06-10T00:38:18.470000Z</value>
        </time>
        <waveformID networkCode="NV" stationCode="KEMF" locationCode="" channelCode="EHZ"></waveformID>
      </pick>
      <pick publicID="smi:local/1c1836e8-24f4-4453-b23a-40dc5625f420">
        <time>
          <value>2017-06-10T00:38:19.240000Z</value>
        </time>
        <waveformID networkCode="NV" stationCode="NCHR" locationCode="" channelCode="EHE"></waveformID>
      </pick>
      <pick publicID="smi:local/1fdfd918-da31-4685-b5f2-1039f84f81e8">
        <time>
          <value>2017-06-10T00:38:18.010000Z</value>
        </time>
        <waveformID networkCode="NV" stationCode="NCHR" locationCode="" channelCode="EHZ"></waveformID>
      </pick>
    </event>
    <event publicID="smi:local/515146_20170610T004741.385000">
      <comment id="smi:local/e882e713-c6dd-459c-b0d1-22a459367470">
        <text>Template: 515146</text>
      </comment>
      <comment id="smi:local/050be77f-8d28-4e62-9bca-bf70a98e0f28">
        <text>threshold=2.4000000953674316</text>
      </comment>
      <comment id="smi:local/7ff099f6-4e34-4c20-9da5-094be8ec1f06">
        <text>detect_val=2.5028014183044434</text>
      </comment>
      <comment id="smi:local/516dce83-c47b-4f17-a0c3-7494c6d9eab9">
        <text>channels used: ('ENWF', 'HHE') ('ENWF', 'HHZ') ('KEMF', 'EHE') ('KEMF', 'EHZ') ('NCHR', 'EHE') ('NCHR', 'EHZ')</text>
      </comment>
      <creationInfo>
        <author>EQcorrscan</author>
        <creationTime>2022-10-17T19:54:04.673264Z</creationTime>
      </creationInfo>
      <pick publicID="smi:local/dcc1769e-c45d-4058-805d-7801c82c6927">
        <time>
          <value>2017-06-10T00:47:43.290000Z</value>
        </time>
        <waveformID networkCode="NV" stationCode="ENWF" locationCode="" channelCode="HHE"></waveformID>
      </pick>
      <pick publicID="smi:local/c2fe445d-ab17-43f2-9f8a-eda1658b21b7">
        <time>
          <value>2017-06-10T00:47:41.800000Z</value>
        </time>
        <waveformID networkCode="NV" stationCode="ENWF" locationCode="" channelCode="HHZ"></waveformID>
      </pick>
      <pick publicID="smi:local/ee9fab1c-be0f-4ebd-8513-63633af88428">
        <time>
          <value>2017-06-10T00:47:43.320000Z</value>
        </time>
        <waveformID networkCode="NV" stationCode="KEMF" locationCode="" channelCode="EHE"></waveformID>
      </pick>
      <pick publicID="smi:local/b4be938e-e67a-44fd-9ed5-8ccf9e99e742">
        <time>
          <value>2017-06-10T00:47:41.895000Z</value>
        </time>
        <waveformID networkCode="NV" stationCode="KEMF" locationCode="" channelCode="EHZ"></waveformID>
      </pick>
      <pick publicID="smi:local/e764af1f-d204-499d-b90b-7c40527cac43">
        <time>
          <value>2017-06-10T00:47:42.665000Z</value>
        </time>
        <waveformID networkCode="NV" stationCode="NCHR" locationCode="" channelCode="EHE"></waveformID>
      </pick>
      <pick publicID="smi:local/b4b933fc-fbba-4b32-b036-9432d6d322ed">
        <time>
          <value>2017-06-10T00:47:41.435000Z</value>
        </time>
        <waveformID networkCode="NV" stationCode="NCHR" locationCode="" channelCode="EHZ"></waveformID>
      </pick>
    </event>
    <event publicID="smi:local/515146_20170610T013230.100000">
      <comment id="smi:local/98e2a167-c341-4844-8ea5-36831d94cd68">
        <text>Template: 515146</text>
      </comment>
      <comment id="smi:local/8f605739-2882-4795-a94b-6871924adfb0">
        <text>threshold=2.4000000953674316</text>
      </comment>
      <comment id="smi:local/8c2ef140-7e3e-40b4-a409-b4db68205d70">
        <text>detect_val=2.4814839363098145</text>
      </comment>
      <comment id="smi:local/1c5ca4c3-d8b1-4b83-bb32-add40cffefad">
        <text>channels used: ('ENWF', 'HHE') ('ENWF', 'HHZ') ('KEMF', 'EHE') ('KEMF', 'EHZ') ('NCHR', 'EHE') ('NCHR', 'EHZ')</text>
      </comment>
      <creationInfo>
        <author>EQcorrscan</author>
        <creationTime>2022-10-17T19:54:04.674358Z</creationTime>
      </creationInfo>
      <pick publicID="smi:local/87f22acd-a170-4c88-a506-d2f0a4618dca">
        <time>
          <value>2017-06-10T01:32:32.005000Z</value>
        </time>
        <waveformID networkCode="NV" stationCode="ENWF" locationCode="" channelCode="HHE"></waveformID>
      </pick>
      <pick publicID="smi:local/9667d655-f6d9-4c60-a135-ec5c1210f91b">
        <time>
          <value>2017-06-10T01:32:30.515000Z</value>
        </time>
        <waveformID networkCode="NV" stationCode="ENWF" locationCode="" channelCode="HHZ"></waveformID>
      </pick>
      <pick publicID="smi:local/dc1b6a72-772e-4548-93d6-c72bb49d81a7">
        <time>
          <value>2017-06-10T01:32:32.035000Z</value>
        </time>
        <waveformID networkCode="NV" stationCode="KEMF" locationCode="" channelCode="EHE"></waveformID>
      </pick>
      <pick publicID="smi:local/894ac772-6acd-4a85-a6ae-5730a3fa51e5">
        <time>
          <value>2017-06-10T01:32:30.610000Z</value>
        </time>
        <waveformID networkCode="NV" stationCode="KEMF" locationCode="" channelCode="EHZ"></waveformID>
      </pick>
      <pick publicID="smi:local/f5f35356-f538-4e6f-bccb-da256deaacf4">
        <time>
          <value>2017-06-10T01:32:31.380000Z</value>
        </time>
        <waveformID networkCode="NV" stationCode="NCHR" locationCode="" channelCode="EHE"></waveformID>
      </pick>
      <pick publicID="smi:local/82e4fe83-66c6-4b6b-916a-46f3c91f9f54">
        <time>
          <value>2017-06-10T01:32:30.150000Z</value>
        </time>
        <waveformID networkCode="NV" stationCode="NCHR" locationCode="" channelCode="EHZ"></waveformID>
      </pick>
    </event>
    <event publicID="smi:local/515146_20170610T013732.510000">
      <comment id="smi:local/4dadd2e5-c569-4070-bd53-4913a39e4b52">
        <text>Template: 515146</text>
      </comment>
      <comment id="smi:local/56c39adf-316c-44ac-9651-f74f9dd11751">
        <text>threshold=2.4000000953674316</text>
      </comment>
      <comment id="smi:local/289d063b-2540-4d47-853b-38f68a270628">
        <text>detect_val=2.544710874557495</text>
      </comment>
      <comment id="smi:local/2f0a162f-7f9d-4d31-8887-bf44a3786805">
        <text>channels used: ('ENWF', 'HHE') ('ENWF', 'HHZ') ('KEMF', 'EHE') ('KEMF', 'EHZ') ('NCHR', 'EHE') ('NCHR', 'EHZ')</text>
      </comment>
      <creationInfo>
        <author>EQcorrscan</author>
        <creationTime>2022-10-17T19:54:04.675326Z</creationTime>
      </creationInfo>
      <pick publicID="smi:local/dc7e9bd2-39a8-46ec-a33f-fe8f20046a71">
        <time>
          <value>2017-06-10T01:37:34.415000Z</value>
        </time>
        <waveformID networkCode="NV" stationCode="ENWF" locationCode="" channelCode="HHE"></waveformID>
      </pick>
      <pick publicID="smi:local/fb4d61b8-e859-4d98-a05a-9d78a2d54518">
        <time>
          <value>2017-06-10T01:37:32.925000Z</value>
        </time>
        <waveformID networkCode="NV" stationCode="ENWF" locationCode="" channelCode="HHZ"></waveformID>
      </pick>
      <pick publicID="smi:local/481d5d49-14bc-4cba-8595-5b4bb35556e3">
        <time>
          <value>2017-06-10T01:37:34.445000Z</value>
        </time>
        <waveformID networkCode="NV" stationCode="KEMF" locationCode="" channelCode="EHE"></waveformID>
      </pick>
      <pick publicID="smi:local/218b32b5-415b-4e08-98a5-3b0411c9eace">
        <time>
          <value>2017-06-10T01:37:33.020000Z</value>
        </time>
        <waveformID networkCode="NV" stationCode="KEMF" locationCode="" channelCode="EHZ"></waveformID>
      </pick>
      <pick publicID="smi:local/43675524-fa51-45ff-ba3b-3a7bf6e75afa">
        <time>
          <value>2017-06-10T01:37:33.790000Z</value>
        </time>
        <waveformID networkCode="NV" stationCode="NCHR" locationCode="" channelCode="EHE"></waveformID>
      </pick>
      <pick publicID="smi:local/8e886b44-b77b-486e-ac68-5f08ed3c15cf">
        <time>
          <value>2017-06-10T01:37:32.560000Z</value>
        </time>
        <waveformID networkCode="NV" stationCode="NCHR" locationCode="" channelCode="EHZ"></waveformID>
      </pick>
    </event>
    <event publicID="smi:local/515146_20170610T013744.575000">
      <comment id="smi:local/6d452960-c060-462d-b5bf-2cb5f0d5d4fe">
        <text>Template: 515146</text>
      </comment>
      <comment id="smi:local/ea54117c-76ca-4cb0-9ff3-133b5a077c43">
        <text>threshold=2.4000000953674316</text>
      </comment>
      <comment id="smi:local/d03e7f81-262e-4558-928c-a31a9afe5920">
        <text>detect_val=-2.8514699935913086</text>
      </comment>
      <comment id="smi:local/bb6ffd3e-b876-4957-a8ad-55093e2d3ffc">
        <text>channels used: ('ENWF', 'HHE') ('ENWF', 'HHZ') ('KEMF', 'EHE') ('KEMF', 'EHZ') ('NCHR', 'EHE') ('NCHR', 'EHZ')</text>
      </comment>
      <creationInfo>
        <author>EQcorrscan</author>
        <creationTime>2022-10-17T19:54:04.676259Z</creationTime>
      </creationInfo>
      <pick publicID="smi:local/6486293d-21db-4e4b-a66c-714dc5d3b995">
        <time>
          <value>2017-06-10T01:37:46.480000Z</value>
        </time>
        <waveformID networkCode="NV" stationCode="ENWF" locationCode="" channelCode="HHE"></waveformID>
      </pick>
      <pick publicID="smi:local/7a5c4e20-adba-4420-a00e-355d1ed4fd47">
        <time>
          <value>2017-06-10T01:37:44.990000Z</value>
        </time>
        <waveformID networkCode="NV" stationCode="ENWF" locationCode="" channelCode="HHZ"></waveformID>
      </pick>
      <pick publicID="smi:local/ea050349-e5d4-473b-b67b-a86893968b28">
        <time>
          <value>2017-06-10T01:37:46.510000Z</value>
        </time>
        <waveformID networkCode="NV" stationCode="KEMF" locationCode="" channelCode="EHE"></waveformID>
      </pick>
      <pick publicID="smi:local/b31ed642-8c42-4f69-a336-ea542a5ab939">
        <time>
          <value>2017-06-10T01:37:45.085000Z</value>
        </time>
        <waveformID networkCode="NV" stationCode="KEMF" locationCode="" channelCode="EHZ"></waveformID>
      </pick>
      <pick publicID="smi:local/7bbbfc47-2e68-4500-96e4-6e1e8c4fe535">
        <time>
          <value>2017-06-10T01:37:45.855000Z</value>
        </time>
        <waveformID networkCode="NV" stationCode="NCHR" locationCode="" channelCode="EHE"></waveformID>
      </pick>
      <pick publicID="smi:local/3c39eee2-f86e-45c1-83bd-e9c7c588bfa7">
        <time>
          <value>2017-06-10T01:37:44.625000Z</value>
        </time>
        <waveformID networkCode="NV" stationCode="NCHR" locationCode="" channelCode="EHZ"></waveformID>
      </pick>
    </event>
    <event publicID="smi:local/515146_20170610T014056.945000">
      <comment id="smi:local/a24989c0-e68a-4a78-b8f0-f7a5164046d9">
        <text>Template: 515146</text>
      </comment>
      <comment id="smi:local/eb6cb53b-1ed3-4947-b1d9-27675861d95e">
        <text>threshold=2.4000000953674316</text>
      </comment>
      <comment id="smi:local/47b6b00c-5c01-4dbf-9ddb-5e3db9222c7b">
        <text>detect_val=2.5468907356262207</text>
      </comment>
      <comment id="smi:local/9f09ab39-51a3-4b2f-80e5-db8865c81965">
        <text>channels used: ('ENWF', 'HHE') ('ENWF', 'HHZ') ('KEMF', 'EHE') ('KEMF', 'EHZ') ('NCHR', 'EHE') ('NCHR', 'EHZ')</text>
      </comment>
      <creationInfo>
        <author>EQcorrscan</author>
        <creationTime>2022-10-17T19:54:04.677257Z</creationTime>
      </creationInfo>
      <pick publicID="smi:local/da97ac04-b7c7-4568-b489-7ea36082056b">
        <time>
          <value>2017-06-10T01:40:58.850000Z</value>
        </time>
        <waveformID networkCode="NV" stationCode="ENWF" locationCode="" channelCode="HHE"></waveformID>
      </pick>
      <pick publicID="smi:local/cb8513c5-314f-47f8-96a7-ed6be4d78983">
        <time>
          <value>2017-06-10T01:40:57.360000Z</value>
        </time>
        <waveformID networkCode="NV" stationCode="ENWF" locationCode="" channelCode="HHZ"></waveformID>
      </pick>
      <pick publicID="smi:local/d6844c6e-92fa-4368-84b6-38379c84bbe4">
        <time>
          <value>2017-06-10T01:40:58.880000Z</value>
        </time>
        <waveformID networkCode="NV" stationCode="KEMF" locationCode="" channelCode="EHE"></waveformID>
      </pick>
      <pick publicID="smi:local/c167dd3d-381d-4d43-93fb-0f3b31142058">
        <time>
          <value>2017-06-10T01:40:57.455000Z</value>
        </time>
        <waveformID networkCode="NV" stationCode="KEMF" locationCode="" channelCode="EHZ"></waveformID>
      </pick>
      <pick publicID="smi:local/346330f7-d039-4166-9d10-2a00a6cbf0fe">
        <time>
          <value>2017-06-10T01:40:58.225000Z</value>
        </time>
        <waveformID networkCode="NV" stationCode="NCHR" locationCode="" channelCode="EHE"></waveformID>
      </pick>
      <pick publicID="smi:local/52591096-7ce4-4ebc-8875-e15c5fbae058">
        <time>
          <value>2017-06-10T01:40:56.995000Z</value>
        </time>
        <waveformID networkCode="NV" stationCode="NCHR" locationCode="" channelCode="EHZ"></waveformID>
      </pick>
    </event>
    <event publicID="smi:local/515146_20170610T014442.880000">
      <comment id="smi:local/154d7e32-a76a-452d-830f-da319398d424">
        <text>Template: 515146</text>
      </comment>
      <comment id="smi:local/ab4cda30-172a-4477-95a7-38cb4ffd55fb">
        <text>threshold=2.4000000953674316</text>
      </comment>
      <comment id="smi:local/d6d14efa-d997-4bfd-8d41-23643d7cce9a">
        <text>detect_val=2.4696614742279053</text>
      </comment>
      <comment id="smi:local/88363202-310a-4e68-af72-3eac9a9cda25">
        <text>channels used: ('ENWF', 'HHE') ('ENWF', 'HHZ') ('KEMF', 'EHE') ('KEMF', 'EHZ') ('NCHR', 'EHE') ('NCHR', 'EHZ')</text>
      </comment>
      <creationInfo>
        <author>EQcorrscan</author>
        <creationTime>2022-10-17T19:54:04.678197Z</creationTime>
      </creationInfo>
      <pick publicID="smi:local/2007a861-ebd6-4dd9-aa5e-70c8e0f74688">
        <time>
          <value>2017-06-10T01:44:44.785000Z</value>
        </time>
        <waveformID networkCode="NV" stationCode="ENWF" locationCode="" channelCode="HHE"></waveformID>
      </pick>
      <pick publicID="smi:local/21ecd6fe-a416-4f6d-b03e-9063e09b371d">
        <time>
          <value>2017-06-10T01:44:43.295000Z</value>
        </time>
        <waveformID networkCode="NV" stationCode="ENWF" locationCode="" channelCode="HHZ"></waveformID>
      </pick>
      <pick publicID="smi:local/bb381ce2-5811-46b1-bd04-5ecee871da5e">
        <time>
          <value>2017-06-10T01:44:44.815000Z</value>
        </time>
        <waveformID networkCode="NV" stationCode="KEMF" locationCode="" channelCode="EHE"></waveformID>
      </pick>
      <pick publicID="smi:local/c3380196-6a46-4340-bbc1-710709c2cd8b">
        <time>
          <value>2017-06-10T01:44:43.390000Z</value>
        </time>
        <waveformID networkCode="NV" stationCode="KEMF" locationCode="" channelCode="EHZ"></waveformID>
      </pick>
      <pick publicID="smi:local/8ec3cfcd-2ca5-44cb-87f8-9dfd6622f4d7">
        <time>
          <value>2017-06-10T01:44:44.160000Z</value>
        </time>
        <waveformID networkCode="NV" stationCode="NCHR" locationCode="" channelCode="EHE"></waveformID>
      </pick>
      <pick publicID="smi:local/1caa3f44-06f2-41b8-8ba6-b5a3f2299551">
        <time>
          <value>2017-06-10T01:44:42.930000Z</value>
        </time>
        <waveformID networkCode="NV" stationCode="NCHR" locationCode="" channelCode="EHZ"></waveformID>
      </pick>
    </event>
